uni,city,zip,latitude,longitude,admission,act,sat,under,cost,debt
University of Chicago,Chicago,60637,41.78917,-87.601196,0.0876,34,1505,5729,64988,12955
Columbia University in the City of New York,New York,10027,40.808286,-73.961885,0.069493736,33,1470,8100,64144,20762.5
Harvey Mudd College,Claremont,91711,34.106137,-117.710594,0.142468733,34,1500,802,63860,25462.5
Washington University in St Louis,Saint Louis,63130-4899,38.648125,-90.311639,0.17130533,33,1478,6913,63755,19500
Occidental College,Los Angeles,90041-3392,34.126224,-118.210783,0.420359084,29,1300,2023,63363,21500
Dartmouth College,Hanover,03755-3529,43.70408,-72.289951,0.115043789,32,1444,4184,63279,10487.5
Northwestern University,Evanston,60208,42.058377,-87.673653,0.131139752,33,1461,8725,63028,17500
Georgetown University,Washington,20057-0001,38.908809,-77.073463,0.173493976,32,1414,7211,62179,15802.5
University of Southern California,Los Angeles,90089,34.021058,-118.283858,0.180238829,31,1380,18392,62092,21062
Oberlin College,Oberlin,44074,41.29474,-82.221786,0.327245053,30,1349,2961,62051,24000
Claremont McKenna College,Claremont,91711-6400,34.102323,-117.706593,0.10772795,32,1419,1293,62010,12574
Carnegie Mellon University,Pittsburgh,15213-3890,40.444616,-79.942914,0.246012518,32,1436,5819,61990,23250
New York University,New York,10012-1091,40.729452,-73.997264,0.354499646,30,1344,24539,61958,20500
Franklin W Olin College of Engineering,Needham,02492-1200,42.292842,-71.264047,0.120040692,33,1475,334,61956,15050
Haverford College,Haverford,19041-1392,40.013368,-75.302562,0.246853547,33,1422,1187,61898,12500
Williams College,Williamstown,1267,42.711669,-73.205888,0.193160228,33,1452,2019,61850,12359.5
Rensselaer Polytechnic Institute,Troy,12180-3590,42.728983,-73.678768,0.375013439,30,1372,5557,61820,26500
Webb Institute,Glen Cove,11542-1398,40.884352,-73.644838,0.329896907,32,1420,90,61820,26500
University of Pennsylvania,Philadelphia,19104-6303,39.951002,-75.193618,0.103663637,33,1452,10678,61800,19500
Duke University,Durham,27708,36.00159,-78.94226,0.114075437,33,1454,6480,61748,7000
Yale University,New Haven,6520,41.311158,-72.926688,0.06304151,33,1493,5473,61620,13206
Cornell University,Ithaca,14853,42.447199,-76.483489,0.141854683,32,1422,14195,61608,11500
Amherst College,Amherst,01002-5000,42.372459,-72.518493,0.138374425,32,1439,1792,61544,10500
Johns Hopkins University,Baltimore,21218-2688,39.32838,-76.620799,0.160797072,33,1439,6039,61481,16000
Boston University,Boston,2215,42.349581,-71.09984,0.345100572,29,1300,16457,61396,25000
George Washington University,Washington,20052,38.89865,-77.047871,0.437935917,29,1297,10433,61394,23000
Scripps College,Claremont,91711-3905,34.103655,-117.711336,0.284049284,31,1360,962,61370,12500
Rhode Island School of Design,Providence,02903-2784,41.825935,-71.407692,0.325894322,30,1254,2014,61352,26598
Vassar College,Poughkeepsie,12604,41.685105,-73.894345,0.235354573,32,1403,2389,61320,15500
Barnard College,New York,10027-6598,40.809137,-73.964027,0.237667371,30,1343,2556,61171,15500
Pepperdine University,Malibu,90263,34.041912,-118.707677,0.354610725,28,1234,3434,61164,24000
Vanderbilt University,Nashville,37240,36.14443,-86.804875,0.130937055,33,1481,6818,61112,12000
Bucknell University,Lewisburg,17837,40.954489,-76.886275,0.307222787,30,1317,3528,61060,26352
Tulane University of Louisiana,New Orleans,70118-5698,29.939696,-90.120409,0.279505899,31,1342,7892,61055,21434
Brandeis University,Waltham,02454-9110,42.364947,-71.254716,0.352159136,31,1369,3715,61023,26750
Tufts University,Medford,02155-5555,42.406994,-71.121689,0.172381252,32,1423,5143,61000,16900
Southern Methodist University,Dallas,75275-0221,32.845254,-96.784855,0.523990861,30,1316,6340,60938,19000
Skidmore College,Saratoga Springs,12866,43.092696,-73.785108,0.373399469,28,1241,2612,60900,18495
Boston College,Chestnut Hill,2467,42.337688,-71.171488,0.339103475,32,1380,9483,60690,19000
Swarthmore College,Swarthmore,19081,39.904081,-75.356066,0.170216606,32,1433,1530,60671,16689
Babson College,Wellesley,02457-0310,42.296529,-71.269479,0.263106953,28,1272,2107,60494,26000
Brown University,Providence,2912,41.827605,-71.404467,0.087443725,32,1435,6264,60460,14465
Carleton College,Northfield,55057-4001,44.462304,-93.154662,0.227727489,32,1408,2042,60401,16000
Stanford University,Stanford,94305,37.426967,-122.168826,0.050869163,33,1465,7018,60311,12000
University of Notre Dame,Notre Dame,46556,41.703058,-86.238959,0.211440702,33,1450,8427,60117,20500
Colgate University,Hamilton,13346-1398,42.8188,-75.535,0.262360904,31,1369,2865,60050,15147
Kenyon College,Gambier,43022,40.374408,-82.397977,0.250640543,30,1332,1651,59960,17525
Harvard University,Cambridge,2138,42.374429,-71.118177,0.059629684,34,1501,7236,59950,7536
Emory University,Atlanta,30322,33.798836,-84.325782,0.268206339,31,1366,7730,59908,17275
University of Miami,Coral Gables,33146,25.720406,-80.27645,0.381773321,30,1330,10828,59850,18750
Bryn Mawr College,Bryn Mawr,19010,40.028541,-75.314988,0.404656319,29,1313,1303,59760,23000
Lafayette College,Easton,18042-1768,40.700512,-75.209058,0.297460236,29,1300,2471,59750,23702
Pomona College,Claremont,91711-6319,34.098298,-117.711944,0.121910185,33,1454,1635,59730,9138
Reed College,Portland,97202-8199,45.480376,-122.63064,0.387259858,31,1383,1335,59595,14345.5
Hamilton College,Clinton,13323,43.047809,-75.408853,0.263458884,32,1393,1890,59590,14500
Middlebury College,Middlebury,5753,44.009117,-73.176068,0.171690055,32,1379,2498,59470,15666
Stevens Institute of Technology,Hoboken,07030-5991,40.744776,-74.025334,0.437764933,31,1346,2842,59384,26501
Colby College,Waterville,04901-8840,44.564211,-69.66337,0.28049728,30,1333,1847,59110,18000
Fordham University,Bronx,10458,40.861183,-73.889578,0.481154673,28,1254,8485,59105,21422.5
Wellesley College,Wellesley,02481-8203,42.293765,-71.307966,0.301061571,32,1390,2172,59092,8200
Santa Clara University,Santa Clara,95053,37.352706,-121.938189,0.493493493,30,1309,5447,59020,19500
Massachusetts Institute of Technology,Cambridge,02139-4307,42.360095,-71.092115,0.07882981,34,1500,4476,59020,14000
Chapman University,Orange,92866,33.793678,-117.851481,0.470376589,27,1210,6211,58948,19000
California Institute of Technology,Pasadena,91125,34.139275,-118.12574,0.088275862,35,1545,983,58755,10750
Drew University,Madison,7940,40.757026,-74.425825,0.701728684,25,1118,1356,58700,25000
Washington and Lee University,Lexington,24450-2116,37.787832,-79.445724,0.194620524,32,1395,1880,58575,21500
Villanova University,Villanova,19085-1699,40.039388,-75.345457,0.493346068,30,1313,6895,58519,24250
Saint Mary's College of California,Moraga,94575,37.83997,-122.106795,0.75950668,25,1109,2949,58362,21500
St John's College,Annapolis,21401,38.981513,-76.491397,0.869565217,30,1323,429,58321,21000
Jewish Theological Seminary of America,New York,10027-4649,40.811959,-73.960287,0.618556701,29,1330,156,58278,19500
Southern California Institute of Architecture,Los Angeles,90013-1822,34.04365,-118.232703,0.807881773,24,1151,263,58142,37500
University of San Francisco,San Francisco,94117-1080,37.775564,-122.450977,0.600527281,26,1152,6745,58039,21500
Northeastern University,Boston,02115-5005,42.339992,-71.088782,0.322206387,32,1420,13492,57981,25000
The New School,New York,10011-8603,40.735275,-73.994636,0.659018143,25,1117,6695,57945,19500
Pratt Institute-Main,Brooklyn,11205,40.691154,-73.962149,0.529894276,26,1141,3232,57783,22500
University of San Diego,San Diego,92110-2492,32.77142,-117.188721,0.46248333,28,1243,5656,57593,19740
Dominican University of California,San Rafael,94901-2298,37.980014,-122.514654,0.809248555,23,1047,1448,57579,25000
University of Richmond,University of Richmond,23173,37.577625,-77.538702,0.318012297,31,1337,3223,57535,19000
Macalester College,Saint Paul,55105-1899,44.936709,-93.169855,0.363453505,30,1354,2053,57478,22477
Davidson College,Davidson,28035,35.500006,-80.845236,0.216726619,30,1337,1765,57458,15750
Syracuse University,Syracuse,13244,43.040005,-76.136633,0.532288167,27,1184,14768,57450,27000
Cooper Union for the Advancement of Science and Art,New York,10003-7120,40.72938,-73.990516,0.150630915,32,1388,852,57429,17500
Case Western Reserve University,Cleveland,44106,41.500812,-81.605769,0.383104035,31,1375,4807,57405,21500
Princeton University,Princeton,08544-0070,40.34853,-74.663603,0.074434143,33,1491,5258,57400,6245
School of the Art Institute of Chicago,Chicago,60603,41.879646,-87.621411,0.691463741,23,1065,2783,57361,19750
University of Redlands,Redlands,92373-0999,34.063571,-117.163847,0.730862563,25,1110,3710,57347,24500
Clarkson University,Potsdam,13699,44.663761,-74.999947,0.621402513,27,1195,3130,57221,24250
Rose-Hulman Institute of Technology,Terre Haute,47803-3920,39.480946,-87.32357,0.587874659,30,1308,2208,57138,25739.5
Lehigh University,Bethlehem,18015,40.607158,-75.378887,0.342685893,30,1326,5034,57043,23024.5
Loyola Marymount University,Los Angeles,90045-2659,33.970633,-118.415655,0.527110671,28,1218,6064,57016,19500
Bentley University,Waltham,02452-4705,42.388798,-71.220148,0.461147519,28,1247,4190,56768,26000
American University,Washington,20016-8001,38.937802,-77.090106,0.45842979,28,1252,7094,56620,20500
Whitman College,Walla Walla,99362,46.07135,-118.33016,0.410073912,30,1323,1480,56600,15750
Drexel University,Philadelphia,19104,39.954855,-75.188745,0.760115424,25,1186,16681,56402,19658.5
Grinnell College,Grinnell,50112-1690,41.747048,-92.721246,0.280125454,32,1398,1670,56354,10077
Mills College,Oakland,94613,37.782639,-122.18789,0.761369716,26,1152,909,56336,18750
Catholic University of America,Washington,20064,38.935796,-76.998961,0.739116769,25,1130,3529,55995,22500
University of Puget Sound,Tacoma,98416,47.263651,-122.479714,0.792942862,28,1230,2550,55948,20175
University of Denver,Denver,80208,39.695954,-104.964625,0.764886613,28,1231,5629,55476,19500
Quinnipiac University,Hamden,6518,41.419527,-72.895542,0.65910851,25,1104,6503,55265,22500
Yeshiva University,New York,10033-3299,40.8508,-73.928541,0.817968291,26,1221,2814,55075,13013
Willamette University,Salem,97301,44.935743,-123.030727,0.81305638,27,1209,2009,54536,19500
Rice University,Houston,77005-1827,29.716485,-95.403625,0.151004061,33,1460,3888,54291,8750
University of the Pacific,Stockton,95211-0197,37.980624,-121.307296,0.548969242,27,1185,3802,54032,20723.5
Baylor University,Waco,76798,31.545956,-97.119359,0.553601982,27,1227,13801,53797,20500
Westmont College,Santa Barbara,93108-1089,34.449265,-119.661932,0.79362815,26,1175,1297,53670,19500
University of Scranton,Scranton,18510-4629,41.40715,-75.658031,0.772649936,25,1125,3909,53567,26848
The University of the Arts,Philadelphia,19102-4901,39.946017,-75.165888,0.695448461,21,1006,1726,53508,24250
The College of Wooster,Wooster,44691,40.81046,-81.934674,0.590867746,28,1229,2029,53500,22250
Emerson College,Boston,02116-4624,42.35532,-71.074037,0.491790102,28,1244,3757,53499,23000
Otis College of Art and Design,Los Angeles,90045-3505,33.956607,-118.416615,0.664772727,22,1010,1090,53439,26500
DePauw University,Greencastle,46135-1772,39.63953,-86.863556,0.565987934,27,1213,2185,53410,22710
Pace University-New York,New York,10038-1598,40.711014,-74.004719,0.849891871,23,1054,8163,53010,18000
Rhodes College,Memphis,38112-1690,35.154424,-89.989187,0.599940863,29,1296,2007,52958,23268
Hendrix College,Conway,72032-3080,35.09972,-92.442021,0.828228228,28,1244,1322,52536,18225
Seattle University,Seattle,98122-4340,47.610138,-122.3197,0.733495671,27,1183,4415,52458,22444
Menlo College,Atherton,94027-4301,37.452906,-122.181444,0.450571792,21,995,793,52454,18750
Simmons College,Boston,02115-5898,42.3393,-71.099967,0.521630408,26,1170,1598,52348,25000
Saint Louis University,Saint Louis,63103-2097,38.636516,-90.23343,0.610830173,28,1239,7822,52310,21500
Fairleigh Dickinson University-College at Florham,Madison,7940,40.777364,-74.435359,0.804105862,24,993,2359,52258,18750
Hampden-Sydney College,Hampden-Sydney,23943-0128,37.242482,-78.461371,0.472657323,24,1098,1105,52016,21000
Cleveland Institute of Art,Cleveland,44106-1710,41.50988,-81.602121,0.66993007,23,1048,551,51934,27000
Allegheny College,Meadville,16335-3902,41.648068,-80.146922,0.717656209,26,1170,1968,51883,27000
St Olaf College,Northfield,55057-1098,44.462884,-93.183633,0.512820513,29,1292,2990,51860,25304
Widener University-Main Campus,Chester,19013-5792,39.86158,-75.356718,0.650063625,22,1023,3144,51753,21250
Eckerd College,Saint Petersburg,33711-4700,27.718996,-82.685992,0.727377855,26,1153,2062,51708,21500
Illinois Institute of Technology,Chicago,60616,41.833801,-87.628346,0.506041023,28,1266,3046,51572,23250
St John's University-New York,Queens,11439,40.721979,-73.795301,0.625221427,25,1107,10878,51420,19500
Florida Institute of Technology,Melbourne,32901-6975,28.064503,-80.624628,0.615653797,27,1176,3348,51312,9375
Kettering University,Flint,48504-6214,43.013112,-83.714356,0.716446125,27,1223,1689,51277,24000
Hofstra University,Hempstead,11549,40.715959,-73.60078,0.616113385,26,1147,6803,51214,17500
Ohio Northern University,Ada,45810-1599,40.766144,-83.830729,0.68594546,26,1180,2234,50960,26250
Arcadia University,Glenside,19038-3295,40.091941,-75.165205,0.58802159,25,1105,2482,50832,20500
Kalamazoo College,Kalamazoo,49006-3295,42.290382,-85.601317,0.696534235,28,1239,1431,50800,21499.5
Savannah College of Art and Design,Savannah,31402-3146,32.072966,-81.093905,0.665515753,24,1081,8846,50774,21500
Elmira College,Elmira,14901,42.092724,-76.811333,0.822077922,24,1073,1318,50722,21804
Roanoke College,Salem,24153-3794,37.29686,-80.056433,0.693200663,23,1087,1986,50487,22904
Pacific University,Forest Grove,97116,45.521394,-123.108777,0.804502814,24,1090,1802,50486,20500
University of the Sciences,Philadelphia,19104-4495,39.946552,-75.208241,0.57883672,26,1169,1626,50483,26994.5
Texas Christian University,Fort Worth,76129,32.709568,-97.361537,0.488695754,27,1207,8600,50440,19500
California Lutheran University,Thousand Oaks,91360-2787,34.225551,-118.879467,0.609707242,25,1109,2799,50425,19000
School of Visual Arts,New York,10010,40.738742,-73.98224,0.767706208,21,1029,3577,50407,23250
Rider University,Lawrenceville,08648-3099,40.283122,-74.742822,0.709054025,22,1026,4188,50389,20750
Whittier College,Whittier,90601,33.977625,-118.028402,0.618762887,23,1061,1624,50361,21000
Illinois Wesleyan University,Bloomington,61702-2900,40.491522,-88.990622,0.604318646,28,1249,1883,50324,25250
College of Saint Benedict,Saint Joseph,56374,45.558609,-94.31902,0.821832579,26,1179,2020,49920,23250
Wells College,Aurora,13026-0500,42.744314,-76.696512,0.565938865,24,1053,525,49800,19000
Loyola University New Orleans,New Orleans,70118-6143,29.936141,-90.120417,0.90247161,25,1135,2734,49791,19218
University of New England,Biddeford,04005-9599,43.458172,-70.385882,0.856845031,24,1073,2217,49671,20225
University of Detroit Mercy,Detroit,48221-3038,42.417168,-83.138369,0.690609279,24,1110,2677,49617,20500
University of Dayton,Dayton,45469,39.73686,-84.173662,0.590127238,27,1194,8305,49540,23250
Lynn University,Boca Raton,33431-5598,26.382777,-80.123851,0.748664605,21,980,1911,49535,11760
Norwich University,Northfield,05663-1035,44.139402,-72.660129,0.657425112,23,1053,2584,49516,19985
Bellarmine University,Louisville,40205-0671,38.219138,-85.7049,0.833954893,25,1120,2499,49508,20000
University of New Haven,West Haven,06516-1916,41.291314,-72.961472,0.808572063,24,1063,4974,49390,21438
University of Tulsa,Tulsa,74104-3189,36.151887,-95.945175,0.402566789,29,1296,3441,49323,20000
Elizabethtown College,Elizabethtown,17022-2298,40.150372,-76.594175,0.708189158,25,1133,1754,49314,24250
Wofford College,Spartanburg,29303-3663,34.957914,-81.934572,0.773865415,27,1194,1654,49150,20500
La Salle University,Philadelphia,19141-1199,40.038503,-75.152996,0.782277605,21,994,4122,48965,20500
Loyola University Chicago,Chicago,60660,41.999161,-87.657399,0.633437837,27,1212,10042,48958,22000
Cornell College,Mount Vernon,52314-1098,41.925982,-91.425435,0.736292428,27,1200,1082,48905,26331.5
Holy Names University,Oakland,94619-1699,37.802654,-122.18717,0.570552147,19,885,690,48896,20250
Sweet Briar College,Sweet Briar,24595-9998,37.556317,-79.079735,0.935361217,25,1056,561,48896,14625
Lesley University,Cambridge,02138-2790,42.378429,-71.115601,0.714892112,24,1086,1727,48818,19493.5
Butler University,Indianapolis,46208,39.840662,-86.171791,0.684648124,27,1205,4013,48784,25000
Curry College,Milton,02186-2395,42.240616,-71.114007,0.868759178,20,948,2843,48778,18500
Trinity University,San Antonio,78212-7200,29.46286,-98.482577,0.484187568,29,1281,2223,48579,19500
Philadelphia University,Philadelphia,19144-5497,40.021715,-75.193684,0.639395846,23,1074,2885,48575,24849
Saint Johns University,Collegeville,56321,45.580538,-94.39268,0.787610619,26,1155,1789,48520,23968
Seton Hall University,South Orange,07079-2697,40.742859,-74.248753,0.755387258,25,1133,5609,48457,19500
Kansas City Art Institute,Kansas City,64111-1874,39.046353,-94.583594,0.599673203,24,1086,650,48454,25000
Manhattan College,Riverdale,10471-4098,40.889756,-73.901893,0.665447006,25,1097,3471,48454,21000
The Kingês College,New York,10004,40.639967,-74.117851,0.703857049,25,1127,482,48437,19000
Luther College,Decorah,52101-1045,43.313584,-91.803971,0.711627907,26,1157,2326,48419,26968
College for Creative Studies,Detroit,48202,42.361839,-83.062352,0.456051873,22,1010,1376,48413,21500
Mount Saint Mary's University,Los Angeles,90049-1599,34.082112,-118.480471,0.782970847,18,902,2659,48372,21000
Marquette University,Milwaukee,53233,43.03903,-87.927961,0.667111009,27,1220,8212,48364,24700
Gonzaga University,Spokane,99258-0001,47.668144,-117.403062,0.675090757,27,1207,4754,48357,23000
University of Dallas,Irving,75062-4736,32.846202,-96.921573,0.851256983,27,1211,1324,48274,16736
Mount St Mary's University,Emmitsburg,21727-7799,39.680632,-77.35222,0.668674699,22,1048,1806,48273,19250
Southwestern University,Georgetown,78626,30.635194,-97.664637,0.485230857,26,1159,1536,48080,20466
Albion College,Albion,49224,42.244603,-84.746088,0.60785919,25,1125,1249,48073,24000
Linfield College-McMinnville Campus,McMinnville,97128-6894,45.201333,-123.200464,0.937682571,24,1083,1643,48058,22176
McDaniel College,Westminster,21157,39.584879,-77.001662,0.761294673,24,1094,1649,47966,21500
University of La Verne,La Verne,91750-4401,34.10086,-117.772634,0.465565408,22,1014,5137,47935,21012.5
Centre College,Danville,40422-1394,37.645102,-84.779175,0.715717723,29,1263,1379,47897,23250
Dean College,Franklin,02038-1941,42.08497,-71.399003,0.686615887,18,857,1256,47892,9500
Hollins University,Roanoke,24020,37.354629,-79.942196,0.564705882,24,1082,588,47787,23515
Creighton University,Omaha,68178,41.265325,-95.947029,0.726720648,27,1200,3977,47780,20917
Saint Mary's College,Notre Dame,46556,41.707274,-86.256947,0.833432128,26,1144,1508,47660,25500
University of St Thomas,Saint Paul,55105-1078,44.941662,-93.189422,0.866180049,20,949,6080,47616,21500
Notre Dame de Namur University,Belmont,94002-1908,37.517501,-122.284618,0.777111214,19,932,1177,47565,18750
Champlain College,Burlington,5401,44.47295,-73.204354,0.641694976,26,1150,2918,47556,20000
Marymount Manhattan College,New York,10021-4597,40.769108,-73.959676,0.735005701,24,1065,1831,47464,17500
Western New England University,Springfield,01119-2684,42.115837,-72.518789,0.801480051,24,1077,2722,47447,20874.5
Moravian College,Bethlehem,18018-6650,40.630888,-75.380979,0.861979167,22,1022,1564,47447,23250
Austin College,Sherman,75090-4400,33.646307,-96.598772,0.543778802,25,1159,1272,47404,23000
Seattle Pacific University,Seattle,98119-1997,47.649338,-122.362923,0.834045424,25,1140,3253,47389,21500
Mercer University,Macon,31207,32.831709,-83.650114,0.6672,27,1205,4418,47379,20000
Rochester Institute of Technology,Rochester,14623-5603,43.090325,-77.67521,0.574654326,29,1240,12635,47291,23500
Carthage College,Kenosha,53140-1994,42.622893,-87.820706,0.716478303,24,1104,2835,47276,20500
Siena College,Loudonville,12211-1462,42.718586,-73.75153,0.658565423,25,1127,3085,47265,23500
Randolph-Macon College,Ashland,23005-5505,37.749654,-77.472253,0.603384095,24,1086,1377,47262,23250
University of Hartford,West Hartford,06117-1599,41.796485,-72.714965,0.72133758,22,1000,4956,47114,18671.5
Coe College,Cedar Rapids,52402-5092,41.986383,-91.657535,0.553041434,25,1146,1363,47060,21500
Immaculata University,Immaculata,19345-0702,40.027963,-75.57063,0.759398496,20,962,2012,47048,21893.5
John Carroll University,University Heights,44118-4581,41.488978,-81.533103,0.82907307,25,1116,3069,46851,23373
Erskine College,Due West,29639,34.330674,-82.390797,0.605695509,22,1016,587,46843,15750
Xavier University,Cincinnati,45207-1092,39.149291,-84.477648,0.731495045,25,1113,4464,46740,20500
Pacific Lutheran University,Tacoma,98447-0003,47.145494,-122.445372,0.750145433,26,1115,2874,46717,22500
DeSales University,Center Valley,18034-9568,40.540137,-75.376549,0.796463506,24,1033,2383,46691,19500
Methodist University,Fayetteville,28311-1420,35.137854,-78.875024,0.559375,21,962,2171,46685,10000
University of Bridgeport,Bridgeport,06604-5620,41.165587,-73.189352,0.607178631,19,899,3021,46680,17392
Wabash College,Crawfordsville,47933-0352,40.037799,-86.905809,0.699761716,25,1128,923,46660,21000
LIU Post,Brookville,11548-1327,40.820043,-73.593279,0.846892485,21,950,3774,46535,18750
Millsaps College,Jackson,39210-0001,32.3231,-90.178084,0.571828032,26,1178,762,46491,22394
Presbyterian College,Clinton,29325,34.465697,-81.874408,0.537184595,24,1090,1032,46378,19075
Delaware Valley University,Doylestown,18901-2697,40.29757,-75.158202,0.757415254,21,990,1823,46333,17936
Iona College,New Rochelle,10801-1890,40.927107,-73.785635,0.866973651,23,1022,3052,46329,20000
Morehouse College,Atlanta,30314,33.74793,-84.415156,0.840286055,22,1004,2106,46258,24500
Saint Edward's University,Austin,78704-6489,30.229844,-97.75763,0.78363102,25,1116,3991,46212,21500
Wheelock College,Boston,02215-4104,42.342503,-71.10582,0.875171468,20,963,867,46164,23789
Biola University,La Mirada,90639-0001,33.904823,-118.017342,0.754001033,25,1122,4364,46162,19500
Suffolk University,Boston,02108-2770,42.359134,-71.06192,0.839062144,24,1049,5274,46152,21500
Wentworth Institute of Technology,Boston,2115,42.336632,-71.094983,0.826373213,25,1116,4295,46112,23000
University of Saint Joseph,West Hartford,6117,41.783028,-72.730489,0.799723757,21,969,930,46088,24500
Randolph College,Lynchburg,24503-1555,37.437429,-79.17079,0.810051737,25,1086,658,46060,19000
Franklin Pierce University,Rindge,03461-0060,42.782305,-72.057875,0.842952275,20,949,1731,45898,13500
Springfield College,Springfield,01109-3797,42.105033,-72.555688,0.708664898,20,1025,2136,45887,20500
Sierra Nevada College,Incline Village,89451,39.24586,-119.939523,0.65742025,23,1010,548,45859,14000
Lycoming College,Williamsport,17701-5192,41.246127,-77.0003,0.722222222,23,1043,1340,45746,26950
Rosemont College,Rosemont,19010-1699,40.034771,-75.329898,0.57875,25,993,516,45736,21000
Becker College,Worcester,01609-2165,42.26918,-71.811895,0.624692875,23,1015,1975,45609,16750
Azusa Pacific University,Azusa,91702-7000,34.130865,-117.88795,0.8183391,23,1037,5918,45472,18500
High Point University,High Point,27268,35.972674,-79.994545,0.801889339,24,1096,4197,45350,19500
Canisius College,Buffalo,14208-1098,42.925319,-78.851794,0.802290701,24,1085,2736,45339,19928.5
Wartburg College,Waverly,50677-0903,42.727629,-92.480933,0.788311688,24,1100,1614,45305,23500
Milwaukee School of Engineering,Milwaukee,53202-3109,43.045364,-87.907691,0.686480186,28,1243,2592,45260,25000
Birmingham Southern College,Birmingham,35254,33.515453,-86.853636,0.533935018,27,1181,1180,45162,21500
Oglethorpe University,Atlanta,30319-2797,33.875939,-84.334756,0.782310469,25,1139,1064,45158,15953
Central College,Pella,50219,41.400236,-92.918664,0.68904824,24,1101,1333,45151,24990
Centenary College,Hackettstown,7840,40.848693,-74.832775,0.819103973,19,926,1612,45141,19750
Augsburg College,Minneapolis,55454,44.965636,-93.241418,0.680240793,23,1074,2552,44986,22387.5
Spring Hill College,Mobile,36608-1791,30.694751,-88.138199,0.517694155,25,1116,1215,44970,20500
Hamline University,Saint Paul,55104-1284,44.965696,-93.163983,0.695932104,24,1101,2157,44883,17877
Lasell College,Newton,2466,42.342712,-71.243738,0.763216918,21,974,1727,44737,20250
Gordon College,Wenham,1984,42.588173,-70.819133,0.88372093,26,1161,1703,44699,23250
Valparaiso University,Valparaiso,46383,41.463176,-87.045853,0.82360191,26,1155,3210,44674,24000
Alma College,Alma,48801-1599,43.379236,-84.670073,0.719846022,24,1101,1362,44636,22000
Centenary College of Louisiana,Shreveport,71134-1188,32.483004,-93.731518,0.656697009,25,1109,548,44596,18304
The College of New Rochelle,New Rochelle,10805-2339,40.899427,-73.781104,0.385346953,21,958,3075,44483,15000
MCPHS University,Boston,02115-5896,42.337036,-71.100964,0.840122825,23,1074,3944,44449,25000
Fairleigh Dickinson University-Metropolitan Campus,Teaneck,7666,40.896162,-74.030023,0.804105862,21,993,3870,44292,18750
Drake University,Des Moines,50311-4505,41.60381,-93.654062,0.692557134,28,1239,3290,44261,20500
Lynchburg College,Lynchburg,24501-3113,37.397678,-79.184153,0.667452403,22,998,2079,44236,21461
Mount Ida College,Newton,2459,42.293205,-71.194658,0.684938272,19,886,1290,44219,20000
Point Loma Nazarene University,San Diego,92106-2899,32.713295,-117.251204,0.695322793,26,1135,2560,44198,18560
Regis University,Denver,80221-1099,39.78976,-105.031385,0.960363336,25,1108,4914,44191,18509.5
Saint Francis University,Loretto,15940,40.502782,-78.638469,0.687195122,23,1033,1932,44190,26000
Elmhurst College,Elmhurst,60126-3096,41.899215,-87.946096,0.67710617,24,1089,2773,44143,17750
Monmouth University,West Long Branch,07764-1898,40.280066,-74.006447,0.741906124,24,1055,4584,44041,22276
Bethel University,Saint Paul,55112,45.057091,-93.159295,0.95434677,25,1146,2936,43974,19500
Duquesne University,Pittsburgh,15282,40.437496,-79.993046,0.730639731,26,1144,5969,43963,24500
Barry University,Miami,33161-6695,25.878865,-80.196136,0.461051799,20,938,3913,43885,20500
William Jewell College,Liberty,64068-1896,39.247848,-94.41207,0.628324946,25,1141,1043,43791,23309
Georgetown College,Georgetown,40324-1696,38.207934,-84.554583,0.887505984,24,1102,972,43776,20479
Rockhurst University,Kansas City,64110-2561,39.030843,-94.571249,0.769446672,26,1164,1671,43750,14500
Marietta College,Marietta,45750,39.417638,-81.450038,0.694572748,24,1105,1336,43634,20375
Capital University,Columbus,43209-2394,39.954875,-82.937867,0.727421555,24,1100,2636,43603,21500
Hanover College,Hanover,47243,38.712488,-85.461086,0.644736842,26,1101,1136,43582,25000
North Central College,Naperville,60540,41.775304,-88.143649,0.598415705,25,1125,2685,43557,20298.5
University of Evansville,Evansville,47722,37.969955,-87.531963,0.829471398,26,1144,2266,43495,22874
Cabrini University,Radnor,19087-3698,40.054565,-75.37215,0.752769163,20,897,1334,43480,18750
Chestnut Hill College,Philadelphia,19118-2693,40.087048,-75.228847,0.747148289,21,968,1428,43477,22000
Elon University,Elon,27244-2010,36.104149,-79.505632,0.539308628,27,1225,5782,43388,20500
Adrian College,Adrian,49221-2575,41.898449,-84.059947,0.618862798,22,1009,1570,43341,18750
Transylvania University,Lexington,40508-1797,38.053236,-84.493883,0.826177285,28,1230,1014,43304,23320
Berry College,Mount Berry,30149,34.289254,-85.189077,0.608260984,27,1183,2065,43283,15831
Queens University of Charlotte,Charlotte,28274-0001,35.188929,-80.832227,0.784473953,23,1051,1621,43239,19258
Otterbein University,Westerville,43081,40.12534,-82.936231,0.753095975,24,1094,2271,43190,21823.5
Saint Peter's University,Jersey City,07306-5997,40.727105,-74.071541,0.568997163,19,899,2409,43111,17500
St Catherine University,Saint Paul,55105,44.924542,-93.181925,0.672070247,22,1032,3399,43101,21679
Maryville College,Maryville,37804-5907,35.751969,-83.963853,0.708251473,23,1049,1213,43069,16625
George Fox University,Newberg,97132,45.30399,-122.968394,0.777585611,23,1081,2494,43033,18000
Belmont University,Nashville,37212-3757,36.133866,-86.794715,0.827184466,26,1176,5778,43030,18750
Adelphi University,Garden City,11530-0701,40.721439,-73.653321,0.724165342,22,1092,5036,43018,21500
Simpson College,Indianola,50125,41.365503,-93.563471,0.854531607,25,1125,1644,43008,22500
Warren Wilson College,Swannanoa,28778-2099,35.611762,-82.441097,0.717687075,26,1134,819,43000,12750
Minneapolis College of Art and Design,Minneapolis,55404,44.956988,-93.274694,0.644067797,24,1088,658,42990,19500
Oklahoma City University,Oklahoma City,73106-1402,35.495271,-97.541242,0.677740864,26,1165,1793,42983,19168
Le Moyne College,Syracuse,13214-1301,43.047316,-76.088449,0.659523429,24,1071,2728,42943,20921
Union University,Jackson,38305-3697,35.676896,-88.858524,0.685829551,26,1170,2441,42891,20563
Notre Dame of Maryland University,Baltimore,21210-2476,39.351307,-76.619701,0.494558646,25,1048,1153,42859,21797
Shenandoah University,Winchester,22601-5195,39.166058,-78.158376,0.825904562,21,994,1875,42847,18851
Concordia College at Moorhead,Moorhead,56562,46.859423,-96.765567,0.642808684,26,1166,2296,42829,25000
Stephens College,Columbia,65215,38.950631,-92.322997,0.535993062,23,1064,667,42776,17375
American International College,Springfield,1109,42.112708,-72.558507,0.675715696,20,887,1473,42762,19750
Vanguard University of Southern California,Costa Mesa,92626,33.662686,-117.900911,0.580044676,21,970,1941,42756,19500
Spelman College,Atlanta,30314-4399,33.74519,-84.410118,0.540009251,22,1005,2135,42739,25000
Trine University,Angola,46703-1764,41.633389,-85.005696,0.757524518,24,1078,1654,42733,17063
Ripon College,Ripon,54971-0248,43.842383,-88.8426,0.674480911,24,1108,820,42703,27000
Felician University,Lodi,7644,40.867272,-74.096452,0.841631674,17,870,1629,42675,21250
Hiram College,Hiram,44234-0067,41.312294,-81.142886,0.620786517,22,1004,1217,42650,21497.5
Alaska Pacific University,Anchorage,99508,61.191235,-149.804242,0.420731707,23,1054,275,42640,18750
Messiah College,Mechanicsburg,17055,40.15867,-76.988492,0.799757282,25,1125,2713,42624,22728
Virginia Wesleyan College,Norfolk,23502-5599,36.868417,-76.18606,0.890444015,22,991,1492,42600,15000
Concordia University-Irvine,Irvine,92612-3203,33.6535,-117.81063,0.860810811,23,1038,1884,42472,17750
Wheaton College,Wheaton,60187-5593,41.870943,-88.09681,0.691542289,30,1311,2402,42390,21500
Bridgewater College,Bridgewater,22812-1599,38.378391,-78.969011,0.478197439,24,1056,1768,42376,20500
The College of Saint Scholastica,Duluth,55811-4199,46.81544,-92.105738,0.661817102,24,1106,2788,42355,18238
Saint Martin's University,Lacey,98503-7500,47.043316,-122.816948,0.888235294,24,1057,1316,42353,20500
Albany College of Pharmacy and Health Sciences,Albany,12208-3492,42.652559,-73.778132,0.674036639,26,1165,1076,42325,23500
Nova Southeastern University,Fort Lauderdale,33314-7796,26.079337,-80.24248,0.488084326,26,1143,4582,42261,19000
St Bonaventure University,Saint Bonaventure,14778,42.07863,-78.47586,0.70432513,24,1066,1735,42234,22750
Cedar Crest College,Allentown,18104-6196,40.586695,-75.519799,0.523274478,22,1005,1310,42202,20500
Saint Vincent College,Latrobe,15650-2690,40.29252,-79.403702,0.719196192,22,1034,1564,42120,24250
Bradley University,Peoria,61625-0001,40.697605,-89.61462,0.643023643,26,1162,4585,42090,24000
Soka University of America,Aliso Viejo,92656-8081,33.549425,-117.734893,0.434567901,27,1223,411,42076,20629
Campbell University,Buies Creek,27506,35.409333,-78.739508,0.680649926,22,1025,4228,42061,16500
Monmouth College,Monmouth,61462-1998,40.91459,-90.637909,0.690634865,22,1033,1281,42027,21000
Roosevelt University,Chicago,60605-1394,41.876055,-87.624952,0.776417404,23,1050,3727,42022,17056
New York Institute of Technology,Old Westbury,11568-8000,40.814402,-73.608885,0.640338337,24,1069,4160,41830,17500
LIM College,New York,10022-5268,40.759817,-73.974911,0.742074928,19,914,1548,41784,19000
Gwynedd Mercy University,Gwynedd Valley,19437-0901,40.197566,-75.238052,0.763779528,21,961,1941,41758,20000
Saint Norbert College,De Pere,54115-2099,44.444651,-88.067301,0.817124244,25,1125,2052,41736,23500
Saint Mary-of-the-Woods College,Saint Mary of the Woods,47876-1099,39.510543,-87.460126,1,20,943,678,41669,17544
John Paul the Great Catholic University,Escondido,92025,33.12085,-117.082401,0.875,24,1086,195,41646,13250
Howard University,Washington,20059-0001,38.920739,-77.019478,0.484084302,24,1105,6961,41643,23750
College of Our Lady of the Elms,Chicopee,1013,42.14179,-72.601541,0.789659224,19,946,1336,41625,23000
Abilene Christian University,Abilene,79699,32.46915,-99.70954,0.504688832,24,1091,3572,41606,19292.5
Ashland University,Ashland,44805,40.860987,-82.320621,0.725725095,23,1048,3227,41577,20000
Stevenson University,Stevenson,21153-0641,39.421264,-76.701247,0.623082973,21,990,3778,41569,19582
Ohio Dominican University,Columbus,43219,39.99265,-82.940499,0.46568839,22,1005,1350,41470,21500
Rivier University,Nashua,3060,42.738343,-71.455466,0.625592417,20,962,1433,41377,19000
Bluffton University,Bluffton,45817-2104,40.896998,-83.897678,0.560259179,22,1029,896,41351,20000
Bay Path University,Longmeadow,1106,42.055364,-72.583974,0.630459127,20,951,1574,41344,18065
Prescott College,Prescott,86301,34.5445,-112.476509,0.687258687,24,1073,454,41256,16250
Emory & Henry College,Emory,24327-0947,36.772543,-81.831737,0.717199184,22,995,997,41251,18563
Columbus College of Art and Design,Columbus,43215,39.965767,-82.988548,0.886363636,22,1044,1193,41140,27000
Lawrence Technological University,Southfield,48075-1058,42.474072,-83.25003,0.574179431,25,1127,2798,41064,19000
Wilson College,Chambersburg,17201-1285,39.947461,-77.658075,0.312834225,22,976,516,41015,20670
Marymount University,Arlington,22207-4224,38.905552,-77.128799,0.839574899,21,1001,2343,41008,20730.5
Converse College,Spartanburg,29302-0006,34.956232,-81.918829,0.534842168,23,1045,822,40977,15274
Eastern University,Saint Davids,19087-3696,40.052306,-75.370268,0.621800948,23,1038,2381,40966,20000
Olivet Nazarene University,Bourbonnais,60914-2271,41.155489,-87.873654,0.74492996,24,1105,3504,40949,19000
Samford University,Birmingham,35229-2240,33.464578,-86.790932,0.595368145,26,1165,3033,40900,17250
Thiel College,Greenville,16125-2181,41.41308,-80.382134,0.694929006,21,970,1025,40841,23250
Defiance College,Defiance,43512,41.300336,-84.356596,0.646918013,21,975,801,40814,17692.5
Northland College,Ashland,54806-3999,46.578983,-90.874991,0.634313725,24,1085,575,40765,17000
Carroll College,Helena,59625-0002,46.602202,-112.04053,0.575276439,25,1133,1410,40762,22000
The Master's College and Seminary,Santa Clarita,91321-1200,34.38214,-118.517422,0.758762887,25,1103,1182,40755,16500
Alvernia University,Reading,19607-1799,40.3102,-75.938163,0.747851003,21,970,2272,40723,22500
La Sierra University,Riverside,92515-8247,33.908834,-117.497071,0.406415976,20,934,2054,40702,14500
Calvin College,Grand Rapids,49546,42.929916,-85.587548,0.731448763,26,1182,3825,40694,22000
Salem College,Winston-Salem,27101,36.087531,-80.241357,0.598493003,24,1102,946,40574,19000
Ferrum College,Ferrum,24088-9000,36.926648,-80.020864,0.733110164,20,852,1447,40553,12000
Buena Vista University,Storm Lake,50588,42.642529,-95.208053,0.678891606,23,1047,1892,40430,16807
Florida Southern College,Lakeland,33801-5698,28.031507,-81.945791,0.448121646,26,1147,2352,40347,16760
St Thomas University,Miami Gardens,33054-6459,25.920915,-80.256265,0.848970252,19,919,931,40271,16250
Covenant College,Lookout Mountain,30750-4164,34.963327,-85.37496,0.966412214,26,1175,1066,40235,19000
Saint John Fisher College,Rochester,14618-3597,43.117064,-77.516979,0.679092805,25,1091,2834,40209,21250
Mary Baldwin College,Staunton,24401,38.155724,-79.067741,0.954456734,22,979,1296,40203,18750
Niagara University,Niagara University,14109,43.138222,-79.037737,0.658625526,23,1040,3130,40164,21362.5
The University of Findlay,Findlay,45840-3653,41.05441,-83.652067,0.719705341,23,1035,2767,40131,18750
Misericordia University,Dallas,18612-1098,41.344765,-75.971016,0.714634146,24,1074,2407,40111,21926.5
Wilmington College,Wilmington,45177,39.441097,-83.817271,0.953671759,21,970,1196,40098,18300
Eastern Mennonite University,Harrisonburg,22802-2462,38.478611,-78.876077,0.604382228,22,1003,1198,40024,14948
College of Mount Saint Vincent,Bronx,10471-1093,40.912814,-73.907019,0.952080706,21,931,1671,40018,25000
Newberry College,Newberry,29108,34.286201,-81.601966,0.567464115,20,945,1076,39983,20000
Marian University,Indianapolis,46222-1997,39.81534,-86.204599,0.564375605,23,1036,1999,39937,21500
West Virginia Wesleyan College,Buckhannon,26201-2994,38.990476,-80.217094,0.775852432,22,1005,1375,39927,15000
Clarke University,Dubuque,52001-3198,42.508619,-90.691512,0.704930096,22,1029,933,39916,19751
Hope College,Holland,49422-9000,42.788052,-86.105376,0.774061433,26,1185,3312,39856,24914
St Louis College of Pharmacy,Saint Louis,63110-1088,38.637165,-90.260357,0.694382022,26,1188,693,39799,17500
Caldwell University,Caldwell,07006-6195,40.834285,-74.273697,0.639250556,20,950,1596,39782,19776
Alfred University,Alfred,14802-1205,42.255866,-77.788625,0.694428489,24,1064,1842,39758,21500
Roberts Wesleyan College,Rochester,14624,43.126747,-77.798964,0.6875,23,1059,1335,39746,19000
Saint Mary's University of Minnesota,Winona,55987-1399,44.045322,-91.696652,0.742398164,23,1067,1859,39736,15750
Mount Saint Mary College,Newburgh,12550,41.511212,-74.012906,0.886157135,22,1011,2096,39720,20000
University of Northwestern-St Paul,Saint Paul,55113-1598,45.032969,-93.171579,0.695427729,24,1110,1945,39702,18500
Taylor University,Upland,46989-1001,40.458382,-85.496906,0.880347594,27,1184,1855,39699,19469
Franklin College,Franklin,46131-2623,39.478298,-86.047182,0.692195122,23,1031,1022,39697,21500
Saint Ambrose University,Davenport,52803-2898,41.540081,-90.58098,0.960731212,23,1050,2675,39639,19500
Pacific Union College,Angwin,94508-9707,38.57409,-122.449639,0.47440273,23,1017,1583,39564,21500
Robert Morris University,Moon Township,15108-1189,40.521088,-80.211785,0.762038259,22,1051,4546,39552,21750
Houghton College,Houghton,14744,42.426841,-78.156882,0.938131313,25,1121,1010,39545,18904.5
Lake Erie College,Painesville,44077-3389,41.717841,-81.251817,0.693602694,21,966,761,39524,15625
California Baptist University,Riverside,92504-3297,33.928569,-117.42587,0.796722869,21,976,6435,39523,20000
Bloomfield College,Bloomfield,7003,40.794218,-74.19593,0.633972069,15,810,1933,39473,18514
LaGrange College,Lagrange,30240-2999,33.039713,-85.041394,0.552494415,22,1035,874,39472,13125
Millikin University,Decatur,62522-2084,39.842604,-88.974571,0.62734255,23,1046,2082,39472,22430.5
Memphis College of Art,Memphis,38104-2764,35.145874,-89.993707,0.380604797,22,1025,365,39459,18250
San Diego Christian College,Santee,92071,32.84281,-116.978151,0.555012225,22,992,940,39364,15544
Corban University,Salem,97317-9392,44.88408,-122.958413,0.373786408,22,1016,924,39327,18041
Manchester University,North Manchester,46962,41.011609,-85.758762,0.742845943,22,1000,1254,39325,19500
Carroll University,Waukesha,53186,43.004647,-88.227962,0.808352981,24,1090,2934,39312,22000
Trinity International University-Illinois,Deerfield,60015-1283,42.197909,-87.882722,1,23,1062,857,39292,13500
Northwestern College,Orange City,51041,42.998955,-96.058382,0.77830941,24,1103,1113,39236,19820
Maryville University of Saint Louis,Saint Louis,63141-7299,38.645474,-90.505096,0.720521173,25,1137,2736,39236,18875
Baker University,Baldwin City,66006-0065,38.777278,-95.188231,0.695283019,23,1059,1649,39122,21353
Webster University,Saint Louis,63119-3194,38.589269,-90.345654,0.720578114,24,1105,3349,39110,19500
DigiPen Institute of Technology,Redmond,98052,47.68938,-122.150181,0.648769575,28,1211,932,39035,19750
Judson University,Elgin,60123-1498,42.05896,-88.289708,0.731152205,23,1080,1051,39014,16250
Gannon University,Erie,16541-0001,42.126111,-80.086258,0.776665853,23,1037,2763,38895,23249
Anderson University,Anderson,46012-3495,40.112167,-85.662292,0.549078601,23,1048,1831,38820,21666
Greensboro College,Greensboro,27401-1875,36.071082,-79.800232,0.731127198,18,876,741,38810,16714
Lipscomb University,Nashville,37204-3951,36.10469,-86.799304,0.555825899,26,1175,2875,38772,13196
Loras College,Dubuque,52004-0178,42.504131,-90.680232,0.951276102,24,1088,1468,38758,21970
Dordt College,Sioux Center,51250-1697,43.08396,-96.166319,0.7299444,24,1100,1343,38709,19000
Nebraska Wesleyan University,Lincoln,68504-2794,40.838789,-96.648414,0.781408451,25,1124,1803,38668,19500
The University of Tampa,Tampa,33606-1490,27.947225,-82.465582,0.518770339,25,1094,6811,38635,17500
Palm Beach Atlantic University,West Palm Beach,33401,26.704629,-80.049758,0.952685422,24,1071,2585,38513,16000
LeTourneau University,Longview,75602,32.467658,-94.72726,0.494037479,26,1177,2015,38461,20718
Concordia College-New York,Bronxville,10708-1998,40.94253,-73.82212,0.747711089,20,872,886,38419,22500
William Peace University,Raleigh,27604-1194,35.789105,-78.636793,0.629053178,19,890,1077,38415,12000
University of Mount Union,Alliance,44601-3993,40.905093,-81.108624,0.735468565,23,1057,2144,38400,23671.5
Doane University-Arts & Sciences,Crete,68333,40.623107,-96.949656,0.793484942,23,1060,1064,38380,17600
Molloy College,Rockville Centre,11571-5002,40.68597,-73.626278,0.754043332,24,1072,3293,38282,24263
Barton College,Wilson,27893-7000,35.735463,-77.913805,0.384565709,21,962,998,38209,21500
Briar Cliff University,Sioux City,51104,42.526919,-96.42696,0.616901408,22,1005,964,38198,14183.5
Concordia University-Wisconsin,Mequon,53097-2402,43.254217,-87.916628,0.754066615,24,1089,4280,38159,14000
Goshen College,Goshen,46526-4794,41.564254,-85.826766,0.54,25,1109,746,38153,16445
Hope International University,Fullerton,92831-3199,33.87616,-117.88573,0.310043668,19,896,816,38119,17750
Point Park University,Pittsburgh,15222-1984,40.438526,-80.001462,0.707408475,22,995,3100,38106,21500
Mount Mercy University,Cedar Rapids,52402-4797,42.001931,-91.650991,0.568345324,22,1030,1417,38095,18835
Mars Hill University,Mars Hill,28754,35.825858,-82.550859,0.620942075,20,924,1396,38086,12250
Neumann University,Aston,19014-1298,39.874944,-75.437928,0.940427699,17,853,2464,38072,22250
Augustana University,Sioux Falls,57197-0001,43.525939,-96.738507,0.612944984,26,1162,1619,37968,24715.5
Iowa Wesleyan University,Mount Pleasant,52641,40.973689,-91.552588,0.410652921,21,990,473,37965,16050
Morningside College,Sioux City,51106-1751,42.47324,-96.360738,0.568192771,23,1065,1293,37944,19500
Averett University,Danville,24541,36.577273,-79.413214,0.596379127,19,923,836,37868,18387.5
St. Thomas Aquinas College,Sparkill,10976-1050,41.041126,-73.934182,0.808151792,20,958,1147,37860,16750
Milligan College,Milligan College,37682,36.30036,-82.29499,0.624137931,24,1097,880,37853,18750
McKendree University,Lebanon,62254-1291,38.609431,-89.814486,0.611507128,23,1048,2452,37845,16500
North Carolina Wesleyan College,Rocky Mount,27804,36.017443,-77.774231,0.532612747,18,923,1864,37812,12740
Cardinal Stritch University,Milwaukee,53217-3985,43.139752,-87.909045,0.829817159,22,1003,2304,37755,23500
Saint Josephs College,Rensselaer,47978-0870,40.917186,-87.155026,0.664122137,21,996,1074,37735,17000
Midland University,Fremont,68025,41.43675,-96.488354,0.601822079,22,1010,1236,37710,12573.5
Benedictine College,Atchison,66002-1499,39.572953,-95.111424,0.977767897,25,1120,1836,37663,19000
Gardner-Webb University,Boiling Springs,28017-0997,35.24732,-81.668141,0.67123696,22,1020,2688,37620,16618
Wesley College,Dover,19901-3875,39.16325,-75.527377,0.567007119,17,853,1431,37617,11000
Ursuline College,Pepper Pike,44124,41.494971,-81.466716,0.655080214,22,1014,694,37601,24500
Eastern Nazarene College,Quincy,02170-2999,42.271214,-71.011238,0.528675704,19,918,1054,37563,15750
Thomas More College,Crestview Hills,41017-3495,39.022963,-84.568923,0.932829555,21,982,1243,37459,20443.5
Texas Lutheran University,Seguin,78155-5999,29.573274,-97.984601,0.558707124,22,1020,1270,37444,19980
Concordia University-Texas,Austin,78726,30.420952,-97.836247,0.852941176,22,1021,1525,37413,16654.5
Heidelberg University,Tiffin,44883-2462,41.114337,-83.166581,0.750618812,22,1027,1096,37390,18000
O'More College of Design,Franklin,37064,35.920971,-86.868053,0.523364486,23,1050,169,37340,21990.5
William Jessup University,Rocklin,95765-3707,38.819494,-121.292968,0.758064516,22,1009,1131,37335,15500
University of Indianapolis,Indianapolis,46227-3697,39.709671,-86.134747,0.664802825,22,1018,4136,37238,20000
Christian Brothers University,Memphis,38104,35.127437,-89.983241,0.497083894,24,1105,1292,37216,20016
Dominican College of Blauvelt,Orangeburg,10962-1210,41.054111,-73.95234,0.628092243,19,872,1483,37205,17500
Aquinas College,Grand Rapids,49506-1799,42.960449,-85.626166,0.650855365,24,1090,1734,37132,18729
Rockford University,Rockford,61108-2311,42.270639,-89.019536,0.548028311,22,1009,1017,37127,18750
La Roche College,Pittsburgh,15237-5898,40.569777,-80.011977,0.939393939,20,926,1269,37094,19500
Concordia University-Portland,Portland,97211-6099,45.568242,-122.637944,0.526232742,22,1037,1243,36978,17053
Walsh University,North Canton,44720-3396,40.873295,-81.36911,0.806756757,23,1043,2257,36976,22000
Quincy University,Quincy,62301-2699,39.939235,-91.387928,0.889258029,22,1024,1075,36972,15000
University of St Francis,Joliet,60435-6188,41.533341,-88.096368,0.505632869,23,1064,1732,36919,20000
Edgewood College,Madison,53711-1997,43.058727,-89.422122,0.76217079,23,1048,1863,36879,19000
Houston Baptist University,Houston,77074-3298,29.694414,-95.515978,0.357271517,23,1054,2279,36782,12000
Fisk University,Nashville,37208-4501,36.16912,-86.805671,0.834512579,20,946,721,36781,19659.5
Dominican University,River Forest,60305,41.902834,-87.821872,0.606717226,22,1029,2149,36761,18750
Tabor College,Hillsboro,67063-1799,38.348606,-97.20096,0.856846473,23,1037,708,36750,15000
Carlow University,Pittsburgh,15213-3165,40.439851,-79.963927,0.907046477,20,941,1323,36704,21000
Hastings College,Hastings,68901,40.590448,-98.373641,0.696498054,24,1079,1135,36689,18250
Wingate University,Wingate,28174-0159,34.979384,-80.444465,0.750643842,21,1001,1941,36669,16000
Notre Dame College,Cleveland,44121-4293,41.506938,-81.516212,0.894997747,20,937,1820,36645,14000
King University,Bristol,37620-2699,36.585899,-82.156532,0.566810345,23,1042,2344,36619,18000
Pontifical College Josephinum,Columbus,43235-1499,40.119967,-83.01899,0.941176471,28,1280,129,36598,14886.5
Ave Maria University,Ave Maria,34142-9505,26.33711,-81.441082,0.516983305,23,1085,1019,36539,12640
St Mary's University,San Antonio,78228,29.451793,-98.564307,0.594581971,22,1033,2309,36504,21902
Concordia University-Chicago,River Forest,60305-1499,41.898574,-87.810009,0.538544185,22,1031,1491,36468,15000
Webber International University,Babson Park,33827-0096,27.838798,-81.532325,0.542787286,20,946,687,36402,9750
Malone University,Canton,44709-3308,40.826516,-81.383525,0.717407687,23,1045,1496,36369,18869
Indiana Institute of Technology,Fort Wayne,46803-1228,41.078338,-85.11795,0.705658944,21,965,6397,36187,9500
University of Mary Hardin-Baylor,Belton,76513-2599,31.066798,-97.463479,0.7990621,24,1064,3039,36180,16500
Avila University,Kansas City,64145-1698,38.912159,-94.591387,0.519758507,23,1038,1321,36178,19000
Saint Xavier University,Chicago,60655,41.707763,-87.713507,0.496368829,22,1008,2940,36152,18750
Limestone College,Gaffney,29340-3799,35.052919,-81.648033,0.519974635,22,1020,3039,36085,15461
Oakwood University,Huntsville,35896,34.756628,-86.661628,0.478652751,20,928,1878,36064,23500
Oral Roberts University,Tulsa,74171,36.050705,-95.954215,0.797619048,22,1010,2947,36011,21250
Kansas Wesleyan University,Salina,67401-6196,38.813923,-97.609476,0.614726027,23,1059,643,36002,15000
Northwest University,Kirkland,98083-0579,47.657743,-122.191505,0.961206897,22,1018,1453,35991,14200
University of the Incarnate Word,San Antonio,78209,29.468052,-98.467709,0.932111816,21,963,6325,35799,20000
McMurry University,Abilene,79697,32.429551,-99.750277,0.613967022,19,901,953,35747,15656
VanderCook College of Music,Chicago,60616-3731,41.836833,-87.629138,0.760869565,24,1109,108,35742,27000
Thomas Aquinas College,Santa Paula,93060,34.429009,-119.087141,0.827027027,28,1261,378,35716,16187.5
Holy Cross College,Notre Dame,46556-0308,41.699982,-86.253668,0.931623932,21,969,512,35688,12250
Northwest Nazarene University,Nampa,83686-5897,43.563181,-116.564792,0.650655022,23,1052,1300,35655,18750
Montreat College,Montreat,28757-1267,35.645844,-82.297522,0.46057572,21,1016,647,35580,18625
Pfeiffer University,Misenheimer,28109,35.484696,-80.283168,0.472332016,19,948,951,35538,15183
Wheeling Jesuit University,Wheeling,26003,40.070873,-80.690804,0.626297578,23,1032,1131,35527,16945
Upper Iowa University,Fayette,52142-1857,42.840293,-91.799663,0.699355762,20,950,4304,35524,14709
Fresno Pacific University,Fresno,93702-4709,36.725279,-119.731953,0.666228647,22,1010,2605,35508,16500
Oakland City University,Oakland City,47660-1099,38.339606,-87.351611,0.550445104,21,960,616,35500,10748
Southern Vermont College,Bennington,05201-6002,42.867031,-73.21866,0.937293729,17,849,441,35500,19250
Clark Atlanta University,Atlanta,30314-4391,33.748772,-84.412818,0.846692607,18,860,2567,35471,19500
The College of Idaho,Caldwell,83605-4432,43.652653,-116.676838,0.929025424,24,1076,1113,35456,19506.5
University of the Ozarks,Clarksville,72830,35.477785,-93.467924,0.889221557,23,1061,578,35438,12000
Nyack College,Nyack,10960-3698,41.086425,-73.931106,0.9936,23,909,1695,35426,12500
Graceland University-Lamoni,Lamoni,50140,40.615966,-93.924893,0.498386353,21,938,1415,35380,16000
Walla Walla University,College Place,99324-1198,46.047,-118.389771,0.57785672,23,1075,1639,35351,20500
Our Lady of the Lake University,San Antonio,78207-4689,29.425611,-98.54395,0.495195861,20,941,1556,35340,16000
Wisconsin Lutheran College,Milwaukee,53226-4699,43.036943,-88.022718,0.643249177,24,1079,1060,35337,18794.5
Multnomah University,Portland,97220,45.518218,-122.682518,0.566666667,21,1047,418,35313,19438
McPherson College,McPherson,67460-1402,38.371464,-97.6443,0.992792793,22,1005,619,35312,14500
University of Dubuque,Dubuque,52001,42.498027,-90.693568,0.77877326,20,941,1764,35300,16481
University of Sioux Falls,Sioux Falls,57105-1699,43.531574,-96.738229,0.972390572,22,1028,1082,35298,15500
Geneva College,Beaver Falls,15010-3599,40.773474,-80.352545,0.710577547,24,1072,1404,35261,19760.5
Muskingum University,New Concord,43762,39.996635,-81.737192,0.764413519,22,1009,1598,35175,18496
Benedictine University,Lisle,60532-0900,41.776395,-88.095948,0.771696638,22,1030,3750,35143,15187.5
Trinity Christian College,Palos Heights,60463-0929,41.669189,-87.784157,0.902158273,24,1080,1237,35139,20000
Bethany College,Lindsborg,67456-1897,38.5786,-97.673173,0.974481659,21,969,637,35126,12500
Bethel College-North Newton,North Newton,67117-1716,38.07525,-97.342572,0.490996399,22,1000,483,35106,15000
Simpson University,Redding,96003-8606,40.61331,-122.333048,0.573578595,22,1024,1065,35070,16300.5
Huntington University,Huntington,46750,40.89907,-85.499624,0.97109067,23,1034,1001,35059,21875
Northwood University-Florida,West Palm Beach,33409-2911,26.714688,-80.104138,0.5773906,19,981,669,35049,17784.5
Andrews University,Berrien Springs,49104,41.962914,-86.356866,0.368803419,24,1081,1629,35017,22500
Asbury University,Wilmore,40390-1198,37.862029,-84.662606,0.686982694,25,1135,1499,34962,18500
Crown College,Saint Bonifacius,55375-9001,44.885372,-93.743015,0.283965015,22,1016,1032,34943,13031
Mount Mary University,Milwaukee,53222-4597,43.072303,-88.030594,0.352664577,20,930,716,34931,21875
Cedarville University,Cedarville,45314-0601,39.750338,-83.812098,0.744921745,26,1187,3082,34902,19500
Lewis University,Romeoville,60446-2200,41.605432,-88.079032,0.619080539,23,1070,4605,34901,19492.5
Cornerstone University,Grand Rapids,49525-5897,42.979044,-85.595602,0.688387636,23,1051,2020,34889,16500
Bluefield College,Bluefield,24605,37.245681,-81.244879,0.979938272,19,907,897,34823,12500
Concordia University-Nebraska,Seward,68434-1556,40.914853,-97.089054,0.766106443,24,1067,1232,34816,18750
Mount Vernon Nazarene University,Mount Vernon,43050-9500,40.373859,-82.474667,0.759803922,23,1046,1706,34801,19582
Northwood University-Michigan,Midland,48640-2398,43.628996,-84.276276,0.5773906,22,981,2808,34733,17784.5
Silver Lake College of the Holy Family,Manitowoc,54220-9319,44.071038,-87.742961,0.474025974,17,820,296,34641,19000
Davis & Elkins College,Elkins,26241-3996,38.928693,-79.846391,0.582229581,21,986,839,34587,14550
Culver-Stockton College,Canton,63435-1299,40.130064,-91.526682,0.577150084,21,986,931,34565,15000
Hebrew Theological College,Skokie,60077,42.011055,-87.761119,0.928374656,22,1030,404,34558,5500
Charleston Southern University,Charleston,29406-9121,32.981986,-80.069288,0.586568231,22,997,2949,34528,15000
Greenville College,Greenville,62246,38.894751,-89.409178,0.55680156,23,1056,1055,34512,15000
Northwest Christian University,Eugene,97401-3745,44.047483,-123.079754,0.719101124,21,987,492,34496,16750
Westminster College,Fulton,65251-1299,38.847764,-91.954345,0.66344294,25,1114,943,34470,20000
Art Academy of Cincinnati,Cincinnati,45202-1706,39.108382,-84.497573,0.243407708,21,961,201,34457,20000
Indiana Wesleyan University-Marion,Marion,46953-4974,40.518495,-85.661991,0.950480629,24,1081,10218,34433,18918
Lakeland College,Plymouth,53073,43.841863,-87.884956,0.547024952,20,949,2232,34385,17774.5
Bethel College-Indiana,Mishawaka,46545-5591,41.677671,-86.191642,0.705349794,23,1040,1520,34378,17631
William Woods University,Fulton,65251-1098,38.857864,-91.949273,0.763020833,23,1042,990,34371,17409
Rocky Mountain College,Billings,59102-1796,45.796765,-108.553899,0.636118598,23,1031,903,34355,17000
Post University,Waterbury,6723,41.535334,-73.080525,0.870709382,14,855,6594,34350,8450
Viterbo University,La Crosse,54601-8804,43.802291,-91.244095,0.691418138,24,1089,2019,34310,21960
Mount Marty College,Yankton,57078-3724,42.874475,-97.409904,0.723557692,21,990,634,34249,19447.5
Watkins College of Art Design & Film,Nashville,37228,36.194659,-86.805888,0.263586957,22,1000,288,34118,19000
Schreiner University,Kerrville,78028-5697,30.03108,-99.131076,0.935278031,22,997,1001,34065,14250
Dallas Baptist University,Dallas,75211-9299,32.710017,-96.947006,0.462145676,23,1075,3357,34013,16191
Arizona Christian University,Phoenix,85032-7097,33.595117,-112.026211,0.567272727,22,988,620,33945,11000
Franciscan University of Steubenville,Steubenville,43952-1763,40.376086,-80.623094,0.779249448,26,1183,2065,33851,19500
University of California-Santa Barbara,Santa Barbara,93106,34.416281,-119.846404,0.363447233,29,1253,20237,33826,14500
Hampton University,Hampton,23668-0099,37.0199,-76.331108,0.290607508,21,999,3456,33798,21500
Spring Arbor University,Spring Arbor,49283-9799,42.206233,-84.551918,0.666413085,22,1035,2632,33787,20000
Cumberland University,Lebanon,37087,36.204243,-86.29966,0.464235624,23,1044,1167,33764,17643.5
Cairn University-Langhorne,Langhorne,19047-2990,40.165809,-74.909509,0.977987421,22,993,805,33730,21500
University of Saint Mary,Leavenworth,66048-5082,39.277308,-94.906935,0.474966171,22,1002,819,33706,19000
Tusculum College,Greeneville,37743,36.172558,-82.761716,0.719353567,22,990,1746,33700,20200
Lyon College,Batesville,72501,35.778934,-91.628115,0.614241803,25,1109,690,33605,12000
Carson-Newman University,Jefferson City,37760,36.122224,-83.492183,0.62397541,24,1083,1701,33563,14750
Siena Heights University,Adrian,49221,41.905952,-84.015144,0.742394822,22,1025,2254,33484,14904
Drury University,Springfield,65802-3791,37.219757,-93.285773,0.744122966,26,1185,3790,33480,14500
Bethany Lutheran College,Mankato,56001,44.166485,-93.990744,0.776805252,23,1070,503,33417,16250
Oklahoma Wesleyan University,Bartlesville,74006-6299,36.717752,-95.954124,0.626981059,22,999,1153,33336,16666
Pennsylvania State University-Main Campus,University Park,16802-1503,40.800732,-77.861644,0.626517667,27,1089,39958,33326,20950
MidAmerica Nazarene University,Olathe,66062-1899,38.872608,-94.782586,0.689940828,22,1010,1322,33252,14485
Grace College and Theological Seminary,Winona Lake,46590-1274,41.226473,-85.813931,0.801240402,24,1110,1478,33215,17750
Oklahoma Baptist University,Shawnee,74804,35.359949,-96.934334,0.604779412,26,1171,1824,33213,12375
Alderson Broaddus University,Philippi,26416-2035,39.158067,-80.047728,0.425773196,22,990,1024,33206,9500
D'Youville College,Buffalo,14201-1084,42.902263,-78.890369,0.687933426,23,1035,1796,33178,20000
Texas Wesleyan University,Fort Worth,76105-1536,32.733314,-97.279631,0.380592992,21,984,1676,33163,17875
Olivet College,Olivet,49076,42.440908,-84.922864,0.614314115,21,917,945,33155,18750
University of the Cumberlands,Williamsburg,40769,36.736489,-84.162375,0.662790698,23,1038,1844,33107,8407
University of California-Santa Cruz,Santa Cruz,95064-1011,36.997258,-122.067993,0.557247035,26,1149,16277,33036,16500
University of California-Berkeley,Berkeley,94720,37.871969,-122.260423,0.160201675,32,1382,27126,33020,13597
Central Methodist University-College of Liberal Arts and Sciences,Fayette,65248-1198,39.150534,-92.685276,0.605348989,23,1050,1175,32970,12413
Howard Payne University,Brownwood,76801-2794,31.716345,-98.984956,0.821192053,21,976,1037,32965,11450
Holy Family University,Philadelphia,19114-2009,40.060414,-74.990365,0.732600733,20,925,1797,32954,22250
Keystone College,La Plume,18440-0200,41.558969,-75.777456,0.920489297,20,921,1431,32907,18191
Fontbonne University,Saint Louis,63105-3098,38.642697,-90.315712,0.906122449,23,1052,1121,32882,22875
Tuskegee University,Tuskegee,36088-1920,32.431021,-85.710315,0.492198009,22,978,2588,32853,21500
Coker College,Hartsville,29550,34.37709,-80.067713,0.508973439,21,992,1138,32818,18000
Reinhardt University,Waleska,30183-2981,34.318874,-84.554657,0.900170648,20,975,1317,32794,9500
Mount Saint Joseph University,Cincinnati,45233-1670,39.094519,-84.640143,0.876237624,22,1005,1463,32785,21365.5
University of Pikeville,Pikeville,41501,37.478835,-82.520265,1,21,966,1329,32707,10500
Hardin-Simmons University,Abilene,79698-0001,32.476786,-99.733815,0.567994505,23,1037,1576,32694,17846
Dakota Wesleyan University,Mitchell,57301-4398,43.695995,-98.030566,0.734254992,23,1044,765,32693,19250
Grand View University,Des Moines,50316,41.620909,-93.605016,0.987046632,21,967,1977,32667,18750
Shorter University,Rome,30165,34.258192,-85.196213,0.690700809,20,951,1449,32664,24250
University of California-Davis,Davis,95616-8678,38.539895,-121.751958,0.403680029,28,1226,27547,32638,12999
Trevecca Nazarene University,Nashville,37210,36.142115,-86.753566,0.730806608,23,1066,1609,32604,14412.5
Visible Music College,Memphis,38103,35.14455,-90.049231,0.239766082,23,1031,112,32600,19500
Ouachita Baptist University,Arkadelphia,71998-0001,34.125045,-93.052442,0.706120092,25,1112,1455,32560,15000
Alverno College,Milwaukee,53234-3922,42.983518,-87.965498,0.651908397,20,930,1689,32528,24250
Spalding University,Louisville,40203-2188,38.2415,-85.758851,0.457115928,21,967,1227,32509,17500
Campbellsville University,Campbellsville,42718-2799,37.343342,-85.348943,0.727170659,21,964,2119,32456,10000
Piedmont College,Demorest,30535-0010,34.56663,-83.543216,0.575452716,21,968,1286,32397,15411
University of Saint Francis-Fort Wayne,Fort Wayne,46808-3994,41.087772,-85.173694,0.968553459,22,981,1796,32377,19125
Huntingdon College,Montgomery,36106-2148,32.350939,-86.285313,0.583855254,22,1026,1149,32370,16701.5
Mount Aloysius College,Cresson,16630-1999,40.459948,-78.601358,0.739821883,18,913,1565,32332,15515
Claflin University,Orangeburg,29115-4498,33.497367,-80.854368,0.437655146,17,806,1779,32305,22335.5
Missouri Baptist University,Saint Louis,63141-8698,38.642017,-90.462606,0.602312139,21,984,1706,32293,15000
Freed-Hardeman University,Henderson,38340-2399,35.440073,-88.639418,0.933908046,25,1117,1310,32282,19500
Columbia International University,Columbia,29203-1513,34.081233,-81.069502,0.332161687,21,1035,552,32220,14500
Evangel University,Springfield,65802-2125,37.220956,-93.262614,0.645316253,23,1055,1788,32183,15601
Liberty University,Lynchburg,24515,37.350345,-79.179688,0.223177678,23,1040,49340,32077,12210.5
University of California-Los Angeles,Los Angeles,90095-1405,34.068892,-118.443901,0.185573801,30,1330,29627,32074,15000
Johnson C Smith University,Charlotte,28216-5398,35.243384,-80.854842,0.422520389,17,808,1375,31993,20500
Gallaudet University,Washington,20002-3695,38.907371,-76.993675,0.653225806,18,849,1001,31988,12000
North Park University,Chicago,60625-4895,41.9751,-87.709142,0.54613936,22,1025,2181,31964,18000
Friends University,Wichita,67213,37.678495,-97.366666,0.613803231,22,1029,1339,31952,20500
Conception Seminary College,Conception,64433-0502,40.24044,-94.682831,1,24,1105,86,31890,19500
University of California-Merced,Merced,95343-5603,37.366237,-120.424944,0.671809688,23,1031,5884,31883,15000
Newman University,Wichita,67213-2097,37.672306,-97.378803,0.528103518,24,1076,1182,31874,15500
Berea College,Berea,40404-2182,37.573334,-84.289332,0.336567617,25,1125,1577,31870,5428
Capitol Technology University,Laurel,20708,39.047047,-76.851413,0.704960836,21,1075,406,31864,17750
Chaminade University of Honolulu,Honolulu,96816-1578,21.290274,-157.807642,0.85620915,21,958,2017,31860,12500
Southeastern University,Lakeland,33801-6034,28.031864,-81.918997,0.439447384,21,965,2946,31855,12229
MacMurray College,Jacksonville,62650-2590,39.730226,-90.22175,0.783653846,21,970,546,31846,19500
University of Pittsburgh-Pittsburgh Campus,Pittsburgh,15260,40.444502,-79.954692,0.574157567,29,1194,18474,31828,21500
Aurora University,Aurora,60506-4892,41.754465,-88.349469,0.811020232,22,1010,3199,31767,15000
East Texas Baptist University,Marshall,75670-1498,32.554545,-94.374337,0.55994978,20,952,1183,31716,11999
Union College,Barbourville,40906-1499,36.869066,-83.887982,0.75234657,21,970,833,31709,11322.5
Saint Augustine's University,Raleigh,27610-2298,35.785032,-78.621806,0.74025974,16,740,1016,31636,15500
Chowan University,Murfreesboro,27855,36.436258,-77.099141,0.598106509,15,773,1478,31573,9500
Toccoa Falls College,Toccoa Falls,30598,34.59554,-83.353462,0.370497427,21,970,807,31415,15556
Waldorf College,Forest City,50436-1713,43.262203,-93.640034,0.688502674,19,913,1356,31369,11490
University of Charleston,Charleston,25304,38.332577,-81.618667,0.60772244,21,988,1513,31350,11000
Lincoln Memorial University,Harrogate,37752-9900,36.581284,-83.658818,0.743712056,23,1055,1622,31299,13593
Belmont Abbey College,Belmont,28012-1802,35.261276,-81.041847,0.692307692,21,1000,1545,31278,18850
University of Mobile,Mobile,36613-2842,30.793247,-88.128934,0.584737364,22,1014,1460,31220,21950
Kentucky Wesleyan College,Owensboro,42301,37.744667,-87.121984,0.607175713,22,1021,691,31040,12500
Lindenwood University,Saint Charles,63301-1695,38.788203,-90.502825,0.528835691,23,1038,7986,30929,18750
Waynesburg University,Waynesburg,15370-1257,39.899419,-80.18727,0.835635359,23,1008,1501,30780,22066
University of Valley Forge,Phoenixville,19460-2373,40.118341,-75.54864,0.930434783,22,941,711,30612,19000
Bryan College-Dayton,Dayton,37321,35.495721,-85.016596,0.484210526,23,1065,1124,30569,9000
Sterling College,Sterling,67579,38.219783,-98.209966,0.443708609,21,978,701,30471,13682.5
North Central University,Minneapolis,55404-1391,44.969389,-93.261429,0.911971831,23,1062,928,30203,18627.5
University of California-Riverside,Riverside,92521,33.97588,-117.331098,0.582920141,25,1128,18784,30174,17000
Colorado School of Mines,Golden,80401,39.75079,-105.227148,0.364748784,30,1333,4383,30154,23000
University of California-San Diego,La Jolla,92093,32.876598,-117.237793,0.332874959,30,1313,24801,30092,17382.5
Southern Virginia University,Buena Vista,24416,37.740669,-79.350296,0.470728793,23,1056,703,30009,10875
Xavier University of Louisiana,New Orleans,70125-1098,29.964162,-90.107307,0.659853646,23,1039,2313,29988,16750
University of New Hampshire-Main Campus,Durham,03824-3547,43.134235,-70.934512,0.798864732,25,1102,12591,29916,23000
Southwest Baptist University,Bolivar,65613-2596,37.601603,-93.410451,0.618453865,23,1070,2477,29870,14492
Kentucky Christian University,Grayson,41143-1199,38.339002,-82.946883,0.477426637,21,966,547,29825,9500
Finlandia University,Hancock,49930-1832,47.12709,-88.589392,0.454545455,19,910,464,29789,16250
University of California-Irvine,Irvine,92697,33.648434,-117.841248,0.374201308,26,1168,24474,29759,15000
Miami University-Oxford,Oxford,45056,39.509642,-84.731821,0.658353425,28,1240,15454,29701,16500
Washington Adventist University,Takoma Park,20912,38.987206,-77.00131,0.449152542,20,854,790,29547,24000
Oklahoma Christian University,Edmond,73013-1100,35.609042,-97.468312,0.640111163,25,1127,1938,29488,15000
Lubbock Christian University,Lubbock,79407-2099,33.576273,-101.934816,0.943236715,22,1010,1406,29481,17750
Tennessee Wesleyan College,Athens,37303,35.444939,-84.592647,0.666666667,22,1002,981,29397,14250
Warner University,Lake Wales,33859-8797,27.825751,-81.599972,0.260034904,18,863,1011,29323,16000
The College of New Jersey,Ewing,08628-7718,40.268742,-74.777412,0.489713815,27,1213,6407,29303,21500
Lincoln College,Lincoln,62656,40.157141,-89.360552,0.5624,25,1125,1184,29217,9500
St Mary's College of Maryland,St. Mary's City,20686-3001,38.188615,-76.425706,0.7886873,26,1188,1668,29172,17217
Flagler College-St Augustine,Saint Augustine,32084,29.89335,-81.315256,0.47881549,23,1058,2767,29138,16000
University of Illinois at Urbana-Champaign,Champaign,61820-5711,40.108864,-88.230309,0.590419295,29,1326,31875,29086,19000
North Greenville University,Tigerville,29688-1892,35.069758,-82.37026,0.594594595,26,1152,2183,29053,11000
Eureka College,Eureka,61530,40.713042,-89.268952,0.644833948,23,1053,652,28945,19500
University of Colorado Boulder,Boulder,80309-0017,40.004415,-105.267061,0.841605435,27,1207,25873,28887,14000
Summit University of Pennsylvania,Clarks Summit,18411-1250,41.496219,-75.683551,0.864864865,22,1004,570,28867,12000
Grace University,Omaha,68108-3629,41.244723,-95.92789,0.446153846,24,1064,387,28826,8750
Pennsylvania State University-Penn State Altoona,Altoona,16601-3777,40.540682,-78.409112,0.626517667,22,1089,3829,28799,20950
Lourdes University,Sylvania,43560-2898,41.708694,-83.706649,0.645507813,20,950,1449,28789,19904
Pennsylvania State University-Penn State Erie-Behrend College,Erie,16563-0001,42.120271,-79.986362,0.626517667,23,1089,3891,28674,20950
Clearwater Christian College,Clearwater,33759-4595,27.963556,-82.697305,0.619217082,21,974,409,28527,9980
University of Jamestown,Jamestown,58405,46.915402,-98.697209,0.643623361,26,1178,866,28522,16200
Lancaster Bible College,Lancaster,17601-5036,40.074375,-76.287781,0.594637224,21,996,1336,28517,11838
Presentation College,Aberdeen,57401-1280,45.482833,-98.49077,0.569536424,21,980,705,28361,14125
University of Vermont,Burlington,05405-0160,44.479262,-73.198128,0.734411753,27,1191,9958,28348,17806
College of William and Mary,Williamsburg,23187-8795,37.271997,-76.709417,0.330195162,31,1373,6256,28329,19000
New Jersey Institute of Technology,Newark,7102,40.741997,-74.177113,0.63387063,26,1168,6748,28225,17000
York College Pennsylvania,York,17403-3651,39.946709,-76.727266,0.454878847,23,1050,4720,28152,21250.5
Southwestern Adventist University,Keene,76059,32.397136,-97.328511,0.496488764,19,905,726,28054,13831.5
Ohio Valley University,Vienna,26105-8000,39.31236,-81.5392,0.323485968,20,944,387,28026,12500
Bacone College,Muskogee,74403-1597,35.77707,-95.335337,0.42962963,18,845,939,28010,9500
Northern Illinois University,Dekalb,60115-2828,41.933791,-88.766065,0.508882608,22,1030,15391,27959,16500
Pennsylvania State University-Penn State Berks,Reading,19610-1016,40.357987,-75.972141,0.626517667,22,1089,2699,27877,20950
Brescia University,Owensboro,42301-3023,37.768989,-87.111533,0.49268033,23,1039,1003,27812,14250
Bryn Athyn College of the New Church,Bryn Athyn,19009-0717,40.131358,-75.06093,0.580213904,20,900,271,27788,10863
Virginia Union University,Richmond,23220,37.561864,-77.450954,0.238898314,16,776,1322,27703,15250
Marygrove College,Detroit,48221-2599,42.414415,-83.154109,0.484182777,17,800,881,27622,14250
Cincinnati Christian University,Cincinnati,45204-3200,39.112396,-84.554752,0.585062241,21,969,602,27591,16865
Ramapo College of New Jersey,Mahwah,07430-1680,41.007523,-74.116384,0.533213913,23,1082,5447,27561,19000
Saint Joseph's College-New York,Brooklyn,11205-3688,40.690485,-73.968037,0.70734127,23,1031,3985,27542,18750
Virginia Commonwealth University,Richmond,23284-2512,37.547631,-77.453597,0.753452537,24,1105,22280,27494,18790
Pennsylvania State University-Penn State Harrisburg,Middletown,17057-4846,40.205234,-76.741961,0.626517667,23,1089,3595,27487,20950
Mississippi College,Clinton,39058,32.334565,-90.330452,0.630414313,25,1120,2942,27468,16750
Truett-McConnell College,Cleveland,30528,34.594437,-83.745972,0.963265306,21,971,729,27467,10707.5
The University of Tennessee-Knoxville,Knoxville,37996,35.955093,-83.929696,0.748283901,27,1198,21396,27450,14500
Temple University,Philadelphia,19122-6096,39.980943,-75.158267,0.617338466,25,1125,27669,27202,21500
Regent University,Virginia Beach,23464,36.800929,-76.192844,0.798188875,23,1066,2273,27182,15500
Huston-Tillotson University,Austin,78702-2795,30.264672,-97.721698,0.596963761,17,814,972,27133,13000
Bethune-Cookman University,Daytona Beach,32114-3099,29.210193,-81.031429,0.637096774,17,803,3897,27130,16000
Point University,West Point,31833,32.879715,-85.185134,0.518867925,19,917,1399,27053,19219
University of Mount Olive,Mount Olive,28365-0919,35.206314,-78.071265,0.4685021,19,902,3258,26982,17750
University of Connecticut,Storrs,6269,41.806261,-72.247969,0.503354871,28,1228,18016,26966,18750
Pennsylvania State University-World Campus,University Park,16802-1503,40.832677,-77.841657,0.626517667,25,1089,5736,26905,20950
College of the Ozarks,Point Lookout,65726-0017,36.616019,-93.238174,0.083064279,23,1074,1433,26900,20950
Wilberforce University,Wilberforce,45384-1001,39.707993,-83.879358,0.375389408,15,735,364,26890,14420
Rochester College,Rochester Hills,48307,42.667521,-83.144959,0.405867971,21,972,976,26820,14336.5
Florida College,Temple Terrace,33617,28.034911,-82.383446,0.765895954,23,1063,555,26750,9892
Dillard University,New Orleans,70122,29.996468,-90.065348,0.405893846,19,886,1200,26606,26527
Pennsylvania State University-Penn State Hazleton,Hazleton,18202-8025,40.984157,-76.031567,0.626517667,21,1089,803,26567,20950
Kuyper College,Grand Rapids,49525-9781,43.02195,-85.592657,0.706467662,22,1030,264,26557,15460
Washington State University,Pullman,99164-5910,46.730448,-117.158168,0.820783234,22,1030,23585,26543,14750
Harding University,Searcy,72143,35.249605,-91.729008,0.991185544,25,1131,4485,26484,19500
University of Rhode Island,Kingston,2881,41.484691,-71.527356,0.768102089,24,1077,13205,26452,18500
Lincoln Christian University,Lincoln,62656-2111,40.148897,-89.34582,0.475770925,22,1006,553,26434,19250
The University of Alabama,Tuscaloosa,35487-0166,33.2144,-87.545766,0.5104636,27,1185,29851,26400,17375
Manhattan Christian College,Manhattan,66502-4801,39.185764,-96.579018,0.590909091,22,1030,289,26300,12000
Illinois State University,Normal,61790-1000,40.509724,-88.99234,0.738789384,24,1110,18056,26259,18000
York College,York,68467-2699,40.867453,-97.579285,0.407599309,21,970,402,26250,15000
South Carolina State University,Orangeburg,29117-0001,33.497439,-80.851185,0.845413947,17,810,2753,26245,19258
College of Charleston,Charleston,29424-0001,32.783142,-79.937251,0.780212899,25,1137,10069,26228,16250
Pennsylvania State University-Penn State Mont Alto,Mont Alto,17237-9700,39.841914,-77.544068,0.626517667,22,1089,837,26224,20950
University of Massachusetts-Amherst,Amherst,1003,42.386162,-72.52617,0.613872801,27,1217,21864,26207,21500
University of Cincinnati-Main Campus,Cincinnati,45221-0063,39.131159,-84.51428,0.757804542,26,1165,23795,26196,14650.5
Stillman College,Tuscaloosa,35401,33.199228,-87.585242,0.590095327,17,811,1056,26185,15575
University of Michigan-Ann Arbor,Ann Arbor,48109,42.276061,-83.743121,0.322384282,31,1380,28217,26143,19500
Stockton University,Galloway,08205-9441,39.492036,-74.531087,0.647542551,21,1078,7676,26132,18500
Clemson University,Clemson,29634,34.677329,-82.834463,0.515224513,29,1261,17083,26065,19500
University of Virginia-Main Campus,Charlottesville,22903-2628,38.037796,-78.505153,0.290029335,31,1357,15515,26063,17867
Oak Hills Christian College,Bemidji,56601-8834,47.425836,-94.901701,0.666666667,21,964,124,26034,9657
Livingstone College,Salisbury,28144,35.670743,-80.484459,0.642533937,15,720,1301,25920,15000
The University of Texas at Austin,Austin,78712,30.286598,-97.73924,0.396570839,29,1296,38914,25918,20500
Faith Baptist Bible College and Theological Seminary,Ankeny,50023-2152,41.736338,-93.624208,0.673333333,22,1004,232,25899,9750
Massachusetts College of Art and Design,Boston,02115-5882,42.33693,-71.099537,0.72936803,25,1077,1781,25838,23000
Dallas Christian College,Dallas,75234-7299,32.913698,-96.887124,0.37962963,22,996,309,25837,14090.5
Trinity Bible College,Ellendale,58436-7105,46.001037,-98.517906,0.36453202,20,946,212,25694,17656.5
Virginia Military Institute,Lexington,24450-0304,37.790644,-79.435737,0.444007859,26,1162,1700,25642,20750
University of Washington-Seattle Campus,Seattle,98195-4550,47.656213,-122.313115,0.57967328,28,1206,29468,25637,14000
Husson University,Bangor,04401-2999,44.828888,-68.791323,0.719534884,19,951,2292,25620,18500
Bellin College,Green Bay,54311,44.468277,-87.921722,0.486486486,23,1050,305,25605,15000
Christopher Newport University,Newport News,23606-3072,37.059919,-76.488408,0.5587836,25,1152,5084,25559,20341
Citadel Military College of South Carolina,Charleston,29409,32.796975,-79.961399,0.755428571,23,1073,2688,25442,19500
Lee University,Cleveland,37311,35.166166,-84.870018,0.890544413,24,1076,4117,25410,18034
Michigan Technological University,Houghton,49931-1295,47.1183,-88.546403,0.755038153,28,1244,5576,25360,20500
Rowan University,Glassboro,8028,39.709768,-75.117974,0.435658153,25,1103,11690,25341,18063.5
Blackburn College,Carlinville,62626,39.288298,-89.872248,0.651015228,21,989,578,25292,14000
Auburn University,Auburn,36849,32.604685,-85.482782,0.834650313,27,1215,20514,25282,17500
Mid-Atlantic Christian University,Elizabeth City,27909-4054,36.303765,-76.217496,0.378854626,23,983,195,25268,11000
University of Illinois at Chicago,Chicago,60607,41.872651,-87.651145,0.744794344,25,1125,16635,25146,15000
Southern Illinois University-Carbondale,Carbondale,62901-4512,37.713239,-89.218724,0.815253304,23,1055,13171,25105,15000
Winthrop University,Rock Hill,29733,34.939066,-81.028928,0.71183458,23,1053,4653,25095,20000
Western Illinois University,Macomb,61455,40.465621,-90.685235,0.696373348,21,970,9645,25074,17500
Ohio State University-Main Campus,Columbus,43210,39.998389,-83.009001,0.529629227,29,1292,43733,25029,16187.5
West Chester University of Pennsylvania,West Chester,19383,39.949084,-75.594631,0.534797984,24,1079,13610,24995,19500
Ohio University-Main Campus,Athens,45701-2979,39.326799,-82.101064,0.7427152,24,1106,23390,24990,13500
William Carey University,Hattiesburg,39401-5499,31.305264,-89.291815,0.504191617,24,1080,2039,24941,15500
University of Pittsburgh-Bradford,Bradford,16701,41.944173,-78.673039,0.574157567,22,1194,1466,24809,21500
Madonna University,Livonia,48150-1176,42.386463,-83.407306,0.585918854,23,1049,2841,24763,21061
Central Christian College of Kansas,McPherson,67460-5740,38.357964,-97.667373,0.496251874,21,966,985,24696,7500
Boise Bible College,Boise,83714-1220,43.657437,-116.290607,0.927536232,21,996,172,24678,13188
University of Pittsburgh-Johnstown,Johnstown,15904,40.268583,-78.832611,0.574157567,22,1194,2864,24609,21500
University of South Carolina-Columbia,Columbia,29208,33.998973,-81.026971,0.651527766,27,1192,24623,24586,19000
Pennsylvania State University-Penn State Greater Allegheny,McKeesport,15132-7644,40.344474,-79.827262,0.626517667,21,1089,554,24564,20950
University of Minnesota-Twin Cities,Minneapolis,55455-0213,44.977886,-93.235352,0.452536392,28,1268,30135,24551,17750
Nebraska Methodist College of Nursing & Allied Health,Omaha,68114-2852,41.265973,-96.048511,0.826086957,24,1090,742,24527,20000
Emmaus Bible College,Dubuque,52001-3096,42.509041,-90.705921,0.397590361,22,1018,216,24460,10750
University of Missouri-Kansas City,Kansas City,64110,39.035366,-94.578039,0.642607683,25,1129,8127,24436,15000
Georgia State University,Atlanta,30303-3083,33.7527,-84.38667,0.594415928,22,1055,24619,24377,16276
Michigan State University,East Lansing,48824-1046,42.73212,-84.476111,0.660925597,26,1158,38395,24323,22255.5
California Polytechnic State University-San Luis Obispo,San Luis Obispo,93407,35.29889,-120.65856,0.308887976,28,1234,19177,24218,16500
University of Massachusetts-Dartmouth,North Dartmouth,02747-2300,41.628861,-71.005528,0.768201285,22,1025,7185,24104,19000
Clarkson College,Omaha,68131-2739,41.259201,-95.977188,0.613445378,21,990,739,24048,20241
University of North Carolina at Chapel Hill,Chapel Hill,27599,35.912165,-79.050969,0.284980212,30,1328,17908,23978,15000
Appalachian Bible College,Mount Hope,25880,37.853339,-81.20115,0.691358025,22,1007,196,23948,6367.5
Maine Maritime Academy,Castine,04420-0001,44.3873,-68.803214,0.786335404,22,1024,1031,23940,27000
Kent State University at Kent,Kent,44242-0001,41.146856,-81.342253,0.843844961,23,1050,22530,23933,16000
Pennsylvania State University-Penn State Schuylkill,Schuylkill Haven,17972-2202,40.642583,-76.166371,0.626517667,19,1089,755,23930,20950
Life Pacific College,San Dimas,91773-3298,34.089421,-117.830997,0.663265306,19,903,479,23926,15245
University of Wisconsin-Madison,Madison,53706-1380,43.073858,-89.405356,0.569384386,29,1286,29302,23839,20500
Eastern Illinois University,Charleston,61920,39.483017,-88.175505,0.497645212,22,1010,7525,23811,18724
University of Mary,Bismarck,58504,46.724893,-100.752386,0.786486486,23,1050,1928,23793,16212.5
Georgia College and State University,Milledgeville,31061,33.082787,-83.231962,0.762443439,25,1132,5827,23731,16250
SUNY at Purchase College,Purchase,10577-1400,41.047092,-73.700127,0.408195543,22,1095,3925,23719,18000
Indiana University-Bloomington,Bloomington,47405-7000,39.166383,-86.526904,0.760904241,27,1198,32252,23716,19000
Ohio Christian University,Circleville,43113-9487,39.610895,-82.905986,0.654028436,20,930,3306,23714,9500
SUNY College of Environmental Science and Forestry,Syracuse,13210,43.034355,-76.139236,0.511278195,27,1193,1718,23671,17417.5
University of Massachusetts-Lowell,Lowell,01854-5104,42.65372,-71.325081,0.620076645,25,1145,12190,23628,19336
California University of Pennsylvania,California,15419-1394,40.066473,-79.884477,0.896709026,20,934,6031,23500,18500
Longwood University,Farmville,23909,37.301073,-78.395789,0.729153059,21,1005,4400,23468,18612
Paul Quinn College,Dallas,75241,32.677195,-96.755864,0.899728997,22,1070,272,23459,9500
University of Oklahoma-Norman Campus,Norman,73019-3072,35.208152,-97.445692,0.813343924,26,1189,20538,23384,15000
Kutztown University of Pennsylvania,Kutztown,19530-0730,40.513705,-75.785426,0.796707408,20,960,8516,23383,18500
University of Mary Washington,Fredericksburg,22401-5300,38.302206,-77.474392,0.767241379,25,1114,4101,23371,16521
University of Delaware,Newark,19716,39.6795744,-75.7529169,0.67829642,27,1194,18222,23357,21000
University of Pittsburgh-Greensburg,Greensburg,15601-5860,40.292824,-79.535757,0.574157567,21,1194,1578,23352,21500
Oregon State University,Corvallis,97331,44.56274,-123.274721,0.777557382,25,1112,22925,23326,15833.5
Our Lady of the Lake College,Baton Rouge,70808,30.40019,-91.110471,0.726027397,22,1010,1551,23323,15833
Arizona State University-Downtown Phoenix,Phoenix,85004,33.45343,-112.073231,0.784430512,24,1135,9113,23298,15034.5
Kean University,Union,7083,40.679429,-74.234668,0.703567681,19,907,11938,23295,18750
Edward Waters College,Jacksonville,32209,30.34513,-81.684817,0.52952381,17,825,927,23235,11000
Wayland Baptist University,Plainview,79072,34.186673,-101.729564,0.97740113,20,946,3716,23229,11875
Georgia Institute of Technology-Main Campus,Atlanta,30332-0530,33.773732,-84.396019,0.333835574,32,1400,13996,23216,21460
George Mason University,Fairfax,22030-4444,38.83088,-77.30794,0.666474348,26,1152,21678,23212,16500
Bryan College of Health Sciences,Lincoln,68506-1299,40.796768,-96.651532,0.573033708,23,1050,588,23203,20499.5
Pennsylvania State University-Penn State Beaver,Monaca,15061-2764,40.678254,-80.296235,0.626517667,19,1089,665,23197,20950
University of Kentucky,Lexington,40506-0032,38.035818,-84.505653,0.722058326,25,1142,21725,23162,14559
Williams Baptist College,Walnut Ridge,72476,36.126825,-90.939876,0.704861111,21,983,508,23161,9500
Southwestern Christian University,Bethany,73008,35.513596,-97.639411,0.80875576,21,981,774,23156,10806
University of Minnesota-Duluth,Duluth,55812,46.818896,-92.085177,0.767829457,24,1110,9120,23153,18022
Shippensburg University of Pennsylvania,Shippensburg,17257-2299,40.057405,-77.5229,0.831302421,20,981,6246,23152,16750
Hillsdale Free Will Baptist College,Moore,73160,35.300757,-97.491107,0.53125,20,940,226,23151,10500
University of Minnesota-Morris,Morris,56267,45.589829,-95.901756,0.635856296,25,1148,1803,23135,12500
Northeastern Illinois University,Chicago,60625-4699,41.980567,-87.72013,0.57605985,19,890,8284,23095,11000
University of Oregon,Eugene,97403,44.044515,-123.07398,0.748958285,25,1116,20252,23055,17333.5
Tennessee Temple University,Winston Salem,27101,35.032456,-85.27742,0.581717452,21,962,496,23054,10500
University of Kansas,Lawrence,66045,38.958551,-95.247618,0.914187861,25,1145,18802,23049,14250
Bowling Green State University-Main Campus,Bowling Green,43403,41.377036,-83.637531,0.533668757,22,1012,13697,22998,19000
University of Missouri-Columbia,Columbia,65211,38.941015,-92.326429,0.776685725,26,1166,27276,22943,17188
Colorado State University-Fort Collins,Fort Collins,80523-0100,40.574759,-105.08083,0.804803362,25,1128,22373,22929,16500
Paine College,Augusta,30901-3182,33.469259,-81.991199,0.218118467,16,760,841,22884,13814.5
Purdue University-Main Campus,West Lafayette,47907-2040,40.428206,-86.914435,0.592891518,27,1213,29977,22879,19500
University of Washington-Bothell Campus,Bothell,98011-8246,47.760718,-122.191454,0.57967328,21,1206,4378,22747,14000
The King's University,Southlake,76092,32.93935,-97.121771,1,21,1016,473,22740,10084
University of Houston,Houston,77204-2018,29.719988,-95.344851,0.629905355,25,1139,31643,22713,14750
The University of Texas at Dallas,Richardson,75080-3021,32.989432,-96.748371,0.619380411,28,1259,14300,22713,14000
Indiana University of Pennsylvania-Main Campus,Indiana,15705-1098,40.615589,-79.159869,0.94733836,20,958,12032,22692,20500
SUNY at Binghamton,Vestal,13850-6000,42.088049,-75.971143,0.440563854,29,1287,13372,22688,17000
Sonoma State University,Rohnert Park,94928-3609,38.341023,-122.673261,0.80018008,21,984,8441,22604,14000
James Madison University,Harrisonburg,22807,38.435332,-78.871663,0.657339246,26,1153,18697,22601,18000
Western Connecticut State University,Danbury,06810-6826,41.400365,-73.444264,0.400254823,21,981,5206,22558,16500
Stephen F Austin State University,Nacogdoches,75961,31.58562,-94.58546,0.585081366,22,998,10692,22544,15500
University of Arkansas at Little Rock,Little Rock,72204,34.726644,-92.341835,0.592804112,23,1048,7942,22521,12500
Western Washington University,Bellingham,98225-9008,48.737236,-122.484873,0.845665051,25,1110,14054,22458,15000
University of Mississippi,University,38677-1848,34.362144,-89.539377,0.812185579,24,1098,17809,22444,15000
University of Montevallo,Montevallo,35115-6000,33.10625,-86.865099,0.742998353,23,1070,2644,22440,15110
SUNY Maritime College,Throggs Neck,10465-4198,40.809048,-73.800336,0.526462396,24,1106,1624,22429,20755
University of Minnesota-Crookston,Crookston,56716-5001,47.802021,-96.609863,0.719565217,22,1006,1876,22394,13000
University of Louisville,Louisville,40292-0001,38.215752,-85.758843,0.738589212,25,1144,15038,22389,12571
Morrisville State College,Morrisville,13408,42.89432,-75.645231,0.561888454,21,895,2728,22386,12000
Bob Jones University,Greenville,29614-0001,34.87402,-82.36329,0.810114504,23,1052,2553,22343,12000
Arizona State University-Tempe,Tempe,85287,33.422247,-111.934629,0.784430512,25,1135,39316,22312,15034.5
Humboldt State University,Arcata,95521-8299,40.8741,-124.0814,0.765530557,21,986,7962,22287,14200
The Evergreen State College,Olympia,98505-0001,47.07382,-122.977492,0.988989637,23,1043,3802,22281,14500
Southern Illinois University-Edwardsville,Edwardsville,62026-1259,38.793949,-89.997779,0.869633922,23,1070,11371,22219,14250
University of Maine,Orono,4469,44.895129,-68.67358,0.82574446,24,1078,8682,22193,17236
Texas Southern University,Houston,77004,29.722468,-95.361961,0.519236475,17,812,6880,22183,14750
University of Missouri-St Louis,Saint Louis,63121-4400,38.711297,-90.308886,0.757767549,24,1105,8936,22165,16522
University of Washington-Tacoma Campus,Tacoma,98402-3100,47.244967,-122.437499,0.57967328,21,1206,3788,22120,14000
Framingham State University,Framingham,01701-9101,42.297289,-71.437175,0.622648752,22,1011,4329,22097,15704
University of Southern Maine,Portland,4103,43.662637,-70.276002,0.83946046,22,998,5783,22083,15362
Massachusetts Maritime Academy,Buzzards Bay,02532-1803,41.740538,-70.623953,0.616049383,23,1105,1395,22073,23250
Louisiana College,Pineville,71359,31.322286,-92.425567,0.610630408,21,990,957,22060,12000
North Carolina State University at Raleigh,Raleigh,27695-7001,35.785111,-78.674517,0.515971237,28,1253,22925,22046,17750
Western Michigan University,Kalamazoo,49008-5200,42.282589,-85.61512,0.840591091,22,1030,18450,22013,20066
University at Buffalo,Buffalo,14260-1660,43.001433,-78.790103,0.578061663,27,1165,19488,21996,15000
Western Oregon University,Monmouth,97361-1394,44.851866,-123.238785,0.887426394,21,1001,4923,21996,16009.5
Adventist University of Health Sciences,Orlando,32803,28.576142,-81.367687,1,20,928,1870,21994,16000
University of Georgia,Athens,30602,33.956428,-83.374049,0.557175638,28,1248,26738,21981,17179.5
Towson University,Towson,21252-0001,39.393008,-76.612268,0.592147348,23,1082,18546,21973,15000
SUNY at Albany,Albany,12222,42.686917,-73.825014,0.558400368,24,1098,12659,21968,16250
SUNY College of Technology at Alfred,Alfred,14802,42.258723,-77.791073,0.542426251,22,982,3607,21952,12000
East Stroudsburg University of Pennsylvania,East Stroudsburg,18301-2999,40.99622,-75.172614,0.814648997,20,954,6125,21947,15750
Kennesaw State University,Kennesaw,30144-5591,34.03629,-84.58083,0.534481274,23,1076,23058,21945,14250
University of Maryland-Baltimore County,Baltimore,21250,39.256686,-76.711607,0.596065381,27,1213,11274,21941,17175
Georgia Southern University,Statesboro,30460-8126,32.427756,-81.782201,0.630953611,24,1099,17232,21932,16500
Grand Valley State University,Allendale,49401-9403,42.965208,-85.887519,0.804334952,24,1089,21561,21907,19500
Louisiana State University and Agricultural & Mechanical College,Baton Rouge,70803-2750,30.414983,-91.178921,0.766344994,26,1161,24452,21846,13258
Central Michigan University,Mount Pleasant,48859,43.591137,-84.775275,0.692740175,23,1050,20297,21828,21500
East Tennessee State University,Johnson City,37614,36.304077,-82.366734,0.917364813,22,1030,11162,21826,13109
Pennsylvania State University-Penn State Shenango,Sharon,16146,41.234852,-80.508204,0.626517667,20,1089,468,21818,20950
Clarion University of Pennsylvania,Clarion,16214,41.209676,-79.374775,0.927083333,19,928,4744,21814,17569
Ball State University,Muncie,47306,40.198942,-85.408863,0.598773955,22,1066,15895,21807,18477
Missouri University of Science and Technology,Rolla,65409,37.955853,-91.7759,0.858540677,29,1283,6418,21798,19500
Coastal Carolina University,Conway,29526,33.794722,-79.012635,0.635988918,21,996,9058,21781,14000
Lander University,Greenwood,29649-2099,34.201143,-82.166351,0.577792778,20,936,2670,21777,16500
University of Akron Main Campus,Akron,44325-4702,41.077768,-81.510328,0.957052407,23,1050,18148,21772,15000
University of South Carolina-Upstate,Spartanburg,29303-4999,34.996403,-81.970583,0.468173999,20,947,5056,21759,15000
Slippery Rock University of Pennsylvania,Slippery Rock,16057-1383,41.060814,-80.051814,0.65974026,22,999,7529,21741,19500
California State University-Chico,Chico,95929-0150,39.728003,-121.846333,0.709560363,22,996,15844,21715,14500
Grambling State University,Grambling,71245,32.522702,-92.717367,0.439530062,18,868,3520,21692,24012.5
Fort Lewis College,Durango,81301-3999,37.275428,-107.867003,0.908159082,22,1020,3609,21691,10000
Cleveland State University,Cleveland,44115-2214,41.502918,-81.673052,0.842063175,22,1014,11308,21684,14250
SUNY College at Oswego,Oswego,13126,43.453047,-76.543885,0.483669026,24,1106,7102,21673,17738.5
Morgan State University,Baltimore,21251-0001,39.344235,-76.584238,0.652454243,18,874,6239,21666,22177.5
Bloomsburg University of Pennsylvania,Bloomsburg,17815,41.007989,-76.446383,0.878124067,20,970,9109,21631,19000
University of Illinois at Springfield,Springfield,62703-5407,39.729862,-89.614917,0.615753425,24,1081,2969,21630,14765.5
Oklahoma State University-Main Campus,Stillwater,74078-1015,36.123085,-97.069743,0.74949017,25,1137,20636,21629,14500
Central Baptist College,Conway,72034,35.084574,-92.444102,0.569672131,21,985,788,21616,10487
The University of Texas at Arlington,Arlington,76013,32.728437,-97.115087,0.613958028,23,1053,29616,21594,12500
SUNY College at Geneseo,Geneseo,14454-1465,42.796864,-77.821999,0.591295003,27,1221,5497,21589,17500
Mississippi State University,Mississippi State,39762,33.454809,-88.788979,0.710198774,25,1126,15800,21581,15250
Arizona State University-Polytechnic,Mesa,85212,33.307114,-111.685485,0.784430512,25,1135,3726,21578,15034.5
SUNY College of Agriculture and Technology at Cobleskill,Cobleskill,12043,42.67257,-74.498247,0.733354572,19,877,2512,21571,11000
SUNY Oneonta,Oneonta,13820-4015,42.466555,-75.064186,0.498791645,24,1086,5803,21555,19500
University of North Carolina School of the Arts,Winston-Salem,27127-2738,36.07482,-80.236625,0.43202765,24,1116,852,21554,19750
Martin Luther College,New Ulm,56073-3965,44.3046,-94.473422,0.973214286,25,1125,744,21524,15750
Central Washington University,Ellensburg,98926-7501,47.004957,-120.537716,0.864563107,21,978,9751,21512,15000
University of Memphis,Memphis,38152,35.118874,-89.938062,0.473963398,22,1029,16093,21492,18000
University of Toledo,Toledo,43606-3390,41.65795,-83.615225,0.947277275,22,1031,15182,21480,13637
Alabama A & M University,Normal,35762,34.783368,-86.568502,0.525603474,17,827,4206,21475,15000
University of Maryland Eastern Shore,Princess Anne,21853-1299,38.211188,-75.687227,0.612653948,17,842,3441,21472,16000
Piedmont International University,Winston-Salem,27101-5025,36.088839,-80.249121,0.460674157,20,937,190,21468,8250
Tennessee Technological University,Cookeville,38505-0001,36.174659,-85.503957,0.944129201,24,1105,10039,21411,10250
Florida State University,Tallahassee,32306-1037,30.4421,-84.294801,0.553855812,28,1228,32432,21408,18750
Alice Lloyd College,Pippa Passes,41844,37.335087,-82.875068,0.361650485,22,1008,657,21391,7550
Stony Brook University,Stony Brook,11794,40.913138,-73.123595,0.413418758,28,1254,16170,21358,16000
University of Nebraska-Lincoln,Lincoln,68588,40.822272,-96.702177,0.698946481,25,1146,19979,21286,14707.5
SUNY at Fredonia,Fredonia,14063-1136,42.450961,-79.336109,0.532239541,24,1056,4900,21269,18500
Castleton University,Castleton,5735,43.607982,-73.181486,0.916419387,20,967,1890,21255,19500
Texas Tech University,Lubbock,79409-5005,33.580309,-101.876917,0.661271888,25,1110,28278,21239,16500
Ferris State University,Big Rapids,49307-2251,43.687464,-85.483509,0.784193363,22,1010,12632,21215,17000
Alcorn State University,Alcorn State,39096-7500,31.877216,-91.142854,0.784408085,18,872,3006,21116,19431.5
San Jose State University,San Jose,95192-0001,37.335201,-121.881214,0.598459883,22,1038,26528,21112,12500
University of Alabama in Huntsville,Huntsville,35899,34.722818,-86.63842,0.820342205,27,1219,5451,21107,15750
Pennsylvania State University-Penn State Wilkes-Barre,Lehman,18627,41.306529,-76.017242,0.626517667,19,1089,493,21102,20950
Wayne State University,Detroit,48202,42.35861,-83.072864,0.773260103,23,1070,17242,21021,15000
Pennsylvania State University-Penn State DuBois,DuBois,15801-2549,41.126941,-78.751784,0.626517667,20,1089,490,21000,20950
Texas A & M University-College Station,College Station,77843-1248,30.613226,-96.340322,0.710251631,27,1206,46941,20998,15500
South Dakota School of Mines and Technology,Rapid City,57701-3995,44.075439,-103.205753,0.880181347,26,1181,2336,20994,14200
Old Dominion University,Norfolk,23529,36.884919,-76.309653,0.818906233,21,1007,19842,20966,16719
State University of New York at New Paltz,New Paltz,12561-2443,41.737205,-74.088727,0.419277284,25,1122,6464,20939,16500
SUNY Polytechnic Institute,Utica,13502,43.13528,-75.2292,0.561029738,25,1099,1890,20924,12275
Johnson State College,Johnson,05656-9464,44.641736,-72.671154,0.954643629,22,941,1363,20913,18077
Jacksonville State University,Jacksonville,36265,33.822128,-85.766644,0.83260357,23,1041,7060,20830,15871
Lock Haven University,Lock Haven,17745-2390,41.142097,-77.463565,0.933934808,20,947,4448,20824,19387
Davis College,Johnson City,13790-2712,42.101092,-75.962421,0.477941176,20,954,252,20802,12000
SUNY College at Plattsburgh,Plattsburgh,12901-2681,44.691103,-73.467342,0.47858495,23,1031,5430,20791,18000
Johnson University,Knoxville,37998,35.937152,-83.750336,0.513513514,22,1017,886,20772,13626
Virginia State University,Petersburg,23806,37.236453,-77.419886,0.8006078,17,837,4481,20767,18500
University of Wisconsin-Milwaukee,Milwaukee,53201-0413,43.076848,-87.880488,0.895500186,22,1010,21577,20715,15750
Mansfield University of Pennsylvania,Mansfield,16933,41.806975,-77.074178,0.907024793,20,950,2518,20711,19000
East Carolina University,Greenville,27858-4353,35.606347,-77.366199,0.772832736,22,1036,21207,20710,17500
University of Iowa,Iowa City,52242-1316,41.660695,-91.535698,0.809478358,26,1164,21486,20691,17750
University of Nevada-Reno,Reno,89557,39.545052,-119.818424,0.838768116,24,1081,16330,20675,11250
San Diego State University,San Diego,92182,32.77525,-117.071228,0.344776093,25,1115,27824,20631,13997
University of Alabama at Birmingham,Birmingham,35294-0110,33.50223,-86.80917,0.856917688,24,1107,11383,20621,14382
Delaware State University,Dover,19901,39.187173,-75.54053,0.437352246,19,894,3654,20587,17500
Radford University,Radford,24142,37.136914,-80.549731,0.789065529,20,968,8843,20582,15000
Winona State University,Winona,55987-5838,44.04585,-91.644838,0.630370475,23,1050,7944,20574,18000
Johnson University Florida,Kissimmee,34744,28.301869,-81.362512,0.513513514,20,1017,220,20568,13626
Massachusetts College of Liberal Arts,North Adams,01247-4100,42.692427,-73.1035,0.722652469,21,977,1517,20552,17930
Central Connecticut State University,New Britain,6050,41.690258,-72.770094,0.604429218,22,1015,9600,20543,16574.5
Westfield State University,Westfield,01086-1630,42.131589,-72.795673,0.745631068,21,997,5429,20536,15251
Tougaloo College,Tougaloo,39174,32.402719,-90.159405,0.402979224,18,864,895,20503,22000
Salem State University,Salem,1970,42.502879,-70.889321,0.705656022,21,984,7180,20484,19000
Fort Valley State University,Fort Valley,31030-4313,32.538163,-83.895548,0.241921005,18,873,2172,20479,21500
Millersville University of Pennsylvania,Millersville,17551-0302,39.99813,-76.355091,0.687095731,21,1012,7070,20437,17750
Eastern Oregon University,La Grande,97850,45.320392,-118.09384,0.641830065,21,948,2997,20421,14000
Oregon Institute of Technology,Klamath Falls,97601-8801,42.257152,-121.785177,0.598406375,24,1044,3457,20395,17333
University of South Carolina-Beaufort,Bluffton,29909,32.303308,-80.973595,0.572446556,20,933,1790,20389,10000
Lyndon State College,Lyndonville,05851-0919,44.53433,-72.024563,0.991438356,19,937,1266,20369,14500
Eastern Washington University,Cheney,99004-2496,47.491293,-117.589371,0.743934229,20,958,12402,20365,15000
University of Arkansas,Fayetteville,72701,36.06153,-94.178214,0.620364517,26,1155,21405,20350,14250
Portland State University,Portland,97201,45.511229,-122.683553,0.693328852,22,1030,19662,20318,16900
Glenville State College,Glenville,26351-1292,38.935341,-80.833597,0.465583913,19,900,1378,20317,12000
University of West Georgia,Carrollton,30118-0001,33.574421,-85.099007,0.486146416,20,950,9982,20310,13504
University of North Dakota,Grand Forks,58202-8193,47.919774,-97.073451,0.859974149,24,1090,10978,20306,16993
University of North Carolina Wilmington,Wilmington,28403-5963,34.225223,-77.875527,0.585524603,24,1145,12686,20292,16096
Arizona State University-West,Glendale,85306,33.6096,-112.161271,0.784430512,24,1135,3280,20252,15034.5
SUNY College at Brockport,Brockport,14420-2919,43.209862,-77.949824,0.489507626,23,1056,6951,20224,16500
Pennsylvania State University-Penn State Fayette- Eberly,Lemont Furnace,15456-0519,39.946471,-79.655871,0.626517667,21,1089,666,20148,20950
Pennsylvania State University-Penn State New Kensington,New Kensington,15068-1765,40.55382,-79.703269,0.626517667,20,1089,627,20140,20950
University of North Florida,Jacksonville,32224-7699,30.270917,-81.507853,0.60570199,24,1133,13884,20102,12500
The University of Virginia's College at Wise,Wise,24293-4400,36.971468,-82.558728,0.688230009,20,946,1477,20095,12000
University of Florida,Gainesville,32611,29.649428,-82.339958,0.455243856,29,1273,31879,20085,14000
Pennsylvania State University-Penn State Worthington Scranton,Dunmore,18512-1602,41.440258,-75.620583,0.626517667,20,1089,1073,20069,20950
Frostburg State University,Frostburg,21532-1099,39.651509,-78.933871,0.585136406,20,967,4765,20046,15020
Edinboro University of Pennsylvania,Edinboro,16444-0001,41.869978,-80.126363,0.993000318,19,928,5494,20026,18000
San Francisco State University,San Francisco,94132,37.721345,-122.477905,0.659731565,21,990,25170,19998,14479
Armstrong State University,Savannah,31419-1997,31.978109,-81.160409,0.6803311,22,1006,6162,19983,12672
Pennsylvania State University-Penn State Brandywine,Media,19063-5522,39.928355,-75.447825,0.626517667,22,1089,1334,19966,20950
Mount Carmel College of Nursing,Columbus,43222-1504,39.957008,-83.021152,0.738888889,22,1030,926,19939,18750
Pennsylvania State University-Penn State York,York,17403-3326,39.952327,-76.702835,0.626517667,22,1089,948,19907,20950
Indiana State University,Terre Haute,47809,39.46873,-87.407085,0.825368627,19,913,10497,19897,11640.5
Pennsylvania State University-Penn State Lehigh Valley,Center Valley,18034-8447,40.557651,-75.401798,0.626517667,22,1089,775,19896,20950
Bridgewater State University,Bridgewater,2325,41.987785,-70.966058,0.79306777,22,991,9500,19877,18250
Indiana University-Purdue University-Indianapolis,Indianapolis,46202-5143,39.772948,-86.172217,0.704876161,22,1010,21777,19875,14600
New College of Florida,Sarasota,34243-2109,27.384925,-82.55858,0.598726115,28,1274,834,19858,11000
Valdosta State University,Valdosta,31698,30.849236,-83.289925,0.541367238,22,1018,9235,19838,16250
Jackson State University,Jackson,39217,32.296781,-90.20663,0.704724409,19,911,7160,19803,21000
University of Nebraska at Kearney,Kearney,68849-1212,40.700787,-99.098237,0.841093865,23,1049,5081,19797,12500
University of South Carolina-Aiken,Aiken,29801,33.572917,-81.767901,0.654614653,21,970,3023,19759,13000
University of Central Florida,Orlando,32816,28.60106,-81.198805,0.496087401,26,1185,52280,19752,14750
Midwestern Baptist Theological Seminary,Kansas City,64118-4697,39.185691,-94.573185,0.763636364,20,970,346,19733,7750
Pennsylvania State University-Penn State Abington,Abington,19001-3918,40.116995,-75.110661,0.626517667,21,1089,3505,19724,20950
Sam Houston State University,Huntsville,77340,30.7247,-95.5519,0.736675749,21,1000,16819,19721,15940
Southern Connecticut State University,New Haven,06515-1355,41.331852,-72.948806,0.715411559,20,932,8133,19704,15119
Texas A & M University-Kingsville,Kingsville,78363,27.524852,-97.882342,0.835680751,19,922,8815,19700,13720
University of South Dakota,Vermillion,57069-2390,42.784558,-96.924664,0.888198758,23,1044,6331,19695,15500
Lamar University,Beaumont,77705,30.044274,-94.073389,0.788057743,21,963,9043,19692,12244
The University of Tennessee-Chattanooga,Chattanooga,37403-2598,35.048247,-85.299812,0.772807136,24,1088,10213,19619,11250
The University of Texas at Tyler,Tyler,75799-6699,32.314724,-95.249096,0.83580705,23,1051,5550,19552,12208
Western State Colorado University,Gunnison,81231,38.547421,-106.91971,0.974145121,22,990,1936,19547,12000
Eastern Michigan University,Ypsilanti,48197,42.245751,-83.624499,0.688673139,22,1028,17723,19532,18538
Lake Superior State University,Sault Ste Marie,49783,46.491736,-84.3655,0.910923277,22,1028,2213,19524,15250
University of Southern Mississippi,Hattiesburg,39406-0001,31.327499,-89.33791,0.667350427,22,1029,11939,19493,15500
Bowie State University,Bowie,20715-9465,39.018185,-76.759721,0.550626482,17,867,4401,19456,16375
Texas State University,San Marcos,78666,29.889202,-97.936392,0.728995818,23,1032,32177,19428,14500
University of North Texas,Denton,76203-1277,33.210958,-97.151211,0.662616034,24,1090,29758,19405,13412
Florida Agricultural and Mechanical University,Tallahassee,32307,30.428554,-84.285644,0.489535579,20,948,7995,19395,21378
Austin Peay State University,Clarksville,37044,36.533319,-87.354081,0.89265195,22,1010,9003,19386,14000
Oakland University,Rochester Hills,48309-4401,42.67449,-83.220523,0.670019157,23,1070,16528,19385,17858
University of Idaho,Moscow,83844-2282,46.726894,-117.024296,0.67480916,24,1057,8162,19381,17500
Truman State University,Kirksville,63501-4221,40.188238,-92.580531,0.744810745,27,1226,5394,19368,17500
Arkansas State University-Main Campus,Jonesboro,72401,35.842779,-90.680478,0.723948093,24,1088,9139,19359,12316
Mississippi Valley State University,Itta Bena,38941-1400,33.514142,-90.341274,0.163291966,17,825,1813,19331,18749
South Dakota State University,Brookings,57007-1898,44.31942,-96.783415,0.920124683,23,1068,10003,19330,15000
West Liberty University,West Liberty,26074,40.162473,-80.604054,0.723628692,21,965,2264,19324,16750.5
Florida Atlantic University,Boca Raton,33431-0991,26.372536,-80.102293,0.660264989,23,1058,24228,19310,12000
University of South Florida-Main Campus,Tampa,33620-9951,28.056647,-82.415876,0.509441247,26,1161,30279,19306,16500
Norfolk State University,Norfolk,23504-8000,36.848262,-76.26393,0.656727015,18,866,5284,19299,21693
Missouri State University-Springfield,Springfield,65897,37.197983,-93.276821,0.850323222,24,1090,16177,19251,14500
Middle Tennessee State University,Murfreesboro,37132,35.849139,-86.362094,0.720624399,22,1032,19928,19251,14250
Southern Oregon University,Ashland,97520,42.186467,-122.694034,0.773709264,23,1029,4397,19231,17500
University of Northern Colorado,Greeley,80639,40.403178,-104.701721,0.708849445,22,1033,9104,19187,14750
Chicago State University,Chicago,60628-1598,41.718813,-87.610344,0.299619358,18,870,3874,19120,20700
University of Hawaii at Manoa,Honolulu,96822-2217,21.292648,-157.816607,0.788236856,23,1070,13667,19106,13046
University of Colorado Denver/Anschutz Medical Campus,Denver,80217-3364,39.74603,-104.999181,0.729916898,23,1055,10786,19096,14000
Baptist Memorial College of Health Sciences,Memphis,38104,35.138415,-90.027501,0.537267081,24,1110,1169,19085,20904
University of Michigan-Flint,Flint,48502-1950,43.018777,-83.688474,0.786392405,21,993,6565,19079,19000
The University of Texas at San Antonio,San Antonio,78249-1644,29.582418,-98.621386,0.759124088,22,1037,23815,19054,15500
Boise State University,Boise,83725,43.604403,-116.205789,0.770023304,23,1042,16206,19053,15000
Adams State University,Alamosa,81101,37.477238,-105.880943,0.65289548,20,955,2110,19043,10315
California State Polytechnic University-Pomona,Pomona,91768,34.054273,-117.819019,0.518733043,24,1074,22269,19042,15000
Southwest Minnesota State University,Marshall,56258-5468,44.455023,-95.75983,0.669385536,21,990,2359,19028,14437
Appalachian State University,Boone,28608,36.214844,-81.680234,0.626610395,25,1148,16116,19017,15502.5
University of Utah,Salt Lake City,84112-9008,40.762484,-111.846044,0.814211628,25,1131,22804,18931,12500
Angelo State University,San Angelo,76909,31.44145,-100.466495,0.824435883,21,976,5290,18915,11492
University of Colorado Colorado Springs,Colorado Springs,80918,38.892735,-104.800296,0.924044002,24,1089,9310,18890,12000
Southern Arkansas University Main Campus,Magnolia,71753,33.291195,-93.235087,0.714228617,21,989,2784,18887,9500
Delta State University,Cleveland,38733,33.747586,-90.73544,0.923387097,21,968,2778,18887,12000
Montana State University,Bozeman,59717,45.666829,-111.049918,0.838466556,25,1128,13117,18886,13775
Southern University and A & M College,Baton Rouge,70813,30.524558,-91.190105,0.536463536,19,910,5133,18882,19750
Northern Michigan University,Marquette,49855,46.558037,-87.403857,0.72094723,22,1010,7718,18865,14000
Iowa State University,Ames,50011-2030,42.026368,-93.648353,0.869068971,25,1145,28336,18828,19000
Francis Marion University,Florence,29506,34.192277,-79.655515,0.591114658,19,933,3249,18828,19500
Florida International University,Miami,33199,25.757111,-80.377591,0.527781908,24,1089,39102,18784,13149
North Dakota State University-Main Campus,Fargo,58108-6050,46.894523,-96.805689,0.827411168,24,1092,11763,18766,15000
New Mexico Institute of Mining and Technology,Socorro,87801,34.066035,-106.907491,0.363908275,26,1193,1525,18762,9038.5
Indiana University-Purdue University-Fort Wayne,Fort Wayne,46805-1499,41.115418,-85.111747,0.908741878,22,1002,9314,18755,14875
Texas A & M University-Corpus Christi,Corpus Christi,78412-5503,27.718601,-97.331933,0.846173149,21,970,9074,18745,12187
Minnesota State University Moorhead,Moorhead,56563,46.866482,-96.763376,0.841911765,23,1049,5496,18680,15700
Henderson State University,Arkadelphia,71999-0001,34.127792,-93.060313,0.62783534,21,989,3226,18679,9500
Lane College,Jackson,38301-4598,35.628197,-88.806832,0.432728518,16,762,1262,18673,15000
California State University-Northridge,Northridge,91330,34.23671,-118.526817,0.528574852,19,914,35409,18665,11509
University of North Carolina at Greensboro,Greensboro,27402-6170,36.067503,-79.809844,0.607270916,23,1043,14497,18640,15250
Cleary University,Howell,48843,42.586573,-83.881516,0.792899408,21,990,438,18625,19640
University of Northern Iowa,Cedar Falls,50614-0005,42.514923,-92.459703,0.777186312,23,1050,9882,18618,17000
University of North Carolina at Asheville,Asheville,28804-8510,35.616618,-82.565259,0.731391586,26,1191,3425,18574,14250
Bemidji State University,Bemidji,56601,47.482505,-94.874529,0.935272045,22,1010,4386,18549,12602.5
Western Carolina University,Cullowhee,28723-9646,35.311102,-83.182104,0.431094947,22,1035,8603,18549,15000
University of South Alabama,Mobile,36688-0002,30.695081,-88.18189,0.833485819,23,1048,11267,18525,13000
Albany State University,Albany,31705,31.571395,-84.14306,0.472910542,18,875,3261,18488,24370.5
University of Southern Indiana,Evansville,47712,37.966188,-87.67666,0.713428228,22,1001,8233,18469,13500
University of Wisconsin-Stout,Menomonie,54751,44.88861,-91.929461,0.90801964,23,1050,8094,18461,17707.5
Georgia Southwestern State University,Americus,31709-4693,32.058198,-84.217755,0.696352841,21,970,2415,18389,15000
Saginaw Valley State University,University Center,48710,43.55187,-83.96434,0.799553144,22,1030,8453,18378,17021
University of Central Arkansas,Conway,72035-0001,35.078196,-92.45931,0.942635659,23,1049,9232,18354,11000
North Carolina Central University,Durham,27707,35.974237,-78.898602,0.432153655,19,886,5554,18354,23485.5
University of South Florida-St Petersburg,St. Petersburg,33701-9807,27.762618,-82.635657,0.509441247,26,1161,3829,18325,16500
Southern Utah University,Cedar City,84720,37.674617,-113.070146,0.61030479,23,1063,5514,18315,8000
Worcester State University,Worcester,01602-2597,42.267534,-71.844019,0.613035113,22,997,5063,18252,13949
California State University-Sacramento,Sacramento,95819-2694,38.55745,-121.42194,0.72649652,20,937,26400,18241,13479
North Carolina A & T State University,Greensboro,27411,36.076737,-79.770152,0.570035336,19,910,8894,18198,19326
Morehead State University,Morehead,40351,38.188462,-83.429742,0.84434683,22,1029,7212,18191,14102
Alabama State University,Montgomery,36104-0271,32.364317,-86.295677,0.532646944,18,851,4811,18184,14362
Eastern Kentucky University,Richmond,40475-3102,37.740396,-84.301356,0.738747954,22,1008,13323,18181,14213
Colorado Mesa University,Grand Junction,81501-3122,39.076354,-108.540281,0.822670966,21,970,8413,18169,10796
University of Wyoming,Laramie,82071,41.311943,-105.57204,0.97659422,25,1118,9910,18145,12000
Saint Cloud State University,Saint Cloud,56301-4498,45.552418,-94.153,0.821915502,22,1010,10878,18142,15000
Northern State University,Aberdeen,57401-7198,45.452555,-98.4837,0.828861494,22,1025,1693,18137,12500
SUNY Buffalo State,Buffalo,14222,42.934199,-78.88067,0.61547014,22,939,9185,18129,15000
University of Central Missouri,Warrensburg,64093,38.755882,-93.737445,0.779488291,22,1010,9017,18112,15000
The University of Montana,Missoula,59812,46.861074,-113.98294,0.927221703,23,1075,10969,18059,14500
University of North Carolina at Charlotte,Charlotte,28223-0001,35.306834,-80.73579,0.640871236,23,1079,22120,18044,16000
West Texas A & M University,Canyon,79016-0001,34.981996,-101.9158,0.674245319,21,970,7121,18039,12500
University of Wisconsin-Eau Claire,Eau Claire,54702-4004,44.798431,-91.500432,0.836922511,24,1110,9987,18013,17245.5
Tarleton State University,Stephenville,76401-0000,32.215665,-98.22008,0.525388385,21,961,10214,17964,12500
University of Maine at Fort Kent,Fort Kent,04743-1292,47.250306,-68.588364,0.74610245,18,899,956,17932,12500
Dakota State University,Madison,57042-1799,44.0127,-97.109609,0.841968912,22,1026,1770,17913,11615
Auburn University at Montgomery,Montgomery,36117-3596,32.369939,-86.177351,0.801695714,22,1009,4304,17903,9500
Southern Polytechnic State University,Marietta,30060-2896,33.938992,-84.519276,0.790573112,25,1134,5890,17894,12500
Fitchburg State University,Fitchburg,01420-2697,42.589345,-71.789354,0.723125328,21,1004,4134,17894,15000
Calvary Bible College and Theological Seminary,Kansas City,64147-1341,38.838169,-94.546238,1,22,1014,225,17891,10000
Prairie View A & M University,Prairie View,77446,30.094591,-95.992066,0.391269036,18,850,6905,17876,16399
Louisiana Tech University,Ruston,71272,32.525518,-92.64964,0.65034965,24,1104,7272,17862,13125
University of West Alabama,Livingston,35470,32.59244,-88.186077,0.719921105,21,990,1916,17839,12500
University of Wisconsin-La Crosse,La Crosse,54601-9959,43.815295,-91.230149,0.762936611,25,1145,9492,17828,18098
Colorado State University-Pueblo,Pueblo,81001-4901,38.309219,-104.579846,0.92776204,21,971,4227,17795,12250
University of Nevada-Las Vegas,Las Vegas,89154,36.106994,-115.141153,0.868925486,22,1000,23329,17781,11377
California State University-Long Beach,Long Beach,90840-0115,33.782752,-118.1123,0.35459335,23,1054,31494,17779,13750
University of Michigan-Dearborn,Dearborn,48128-1491,42.317287,-83.231417,0.626658973,24,1105,6906,17766,18750
Trinity Baptist College,Jacksonville,32221,30.323755,-81.705655,0.63681592,19,899,352,17757,5500
The University of West Florida,Pensacola,32514-5750,30.542855,-87.218125,0.416674968,24,1065,9794,17697,12500
Central State University,Wilberforce,45384-1004,39.716465,-83.876795,0.377187079,17,804,1728,17695,18903.5
California State University-San Marcos,San Marcos,92096-0001,33.129115,-117.158013,0.618009036,20,948,11506,17692,12500
Northwestern State University of Louisiana,Natchitoches,71497-0002,31.750675,-93.097715,0.729834791,22,1027,6828,17659,12500
Concordia College Alabama,Selma,36701,32.42443,-87.023531,0.532846715,21,942,322,17603,9500
West Virginia University,Morgantown,26506-6201,39.63468,-79.953926,0.847189911,24,1065,21945,17585,14063
Florida Gulf Coast University,Fort Myers,33965-6565,26.464262,-81.773578,0.588833224,23,1059,13253,17539,11786
Western Kentucky University,Bowling Green,42101-1000,36.985718,-86.455898,0.933230915,23,1047,15388,17493,15040.5
Southeast Missouri State University,Cape Girardeau,63701,37.31575,-89.529119,0.847789474,23,1050,9382,17405,13257.5
University of New Mexico-Main Campus,Albuquerque,87106,35.083868,-106.620155,0.453793542,23,1060,20261,17401,13191
Northwest Missouri State University,Maryville,64468-6001,40.352706,-94.884341,0.765818793,23,1051,5222,17376,14958
Rogers State University,Claremore,74017-3252,36.319609,-95.635739,0.770104068,18,850,3611,17374,7250
Minnesota State University-Mankato,Mankato,56001,44.147253,-93.998494,0.665765224,22,1010,12332,17355,15000
Troy University,Troy,36082-0001,31.800128,-85.950191,0.441445707,23,1050,15025,17354,14500
Sul Ross State University,Alpine,79832,30.363418,-103.65007,0.934,19,890,2018,17354,9500
University of Wisconsin-Platteville,Platteville,53818-3001,42.733936,-90.492709,0.944018187,24,1090,7888,17333,15750
Columbus State University,Columbus,31907-5645,32.501556,-84.940796,0.552201705,21,976,6715,17329,14000
Clayton  State University,Morrow,30260-0285,33.594079,-84.328174,0.424450549,20,930,6064,17292,18309.5
University of Wisconsin-Oshkosh,Oshkosh,54901,44.024985,-88.549282,0.803401498,22,1030,10337,17260,17417
Texas A & M University-Commerce,Commerce,75429-3011,33.243814,-95.906913,0.478379196,20,909,7358,17241,14000
Brigham Young University-Provo,Provo,84602,40.250851,-111.649281,0.470030691,29,1290,27163,17236,8616
Kentucky State University,Frankfort,40601-2355,38.201056,-84.855488,0.476911315,19,883,1627,17231,14250
Blue Mountain College,Blue Mountain,38610-9509,34.67209,-89.02924,0.55033557,22,1030,498,17198,12000
University of Wisconsin-River Falls,River Falls,54022-5001,44.852647,-92.625316,0.895444685,23,1050,5381,17182,16750
University of Central Oklahoma,Edmond,73034,35.658239,-97.470985,0.903240026,21,990,14728,17079,12500
University of Wisconsin-Green Bay,Green Bay,54311-7001,44.531102,-87.920499,0.873521851,23,1050,5674,17072,14274
Southeastern Bible College,Birmingham,35244-2083,33.378935,-86.749045,1,20,930,170,17066,20000
Southwestern Oklahoma State University,Weatherford,73096-3098,35.534609,-98.707964,0.852583587,22,1010,4051,17060,9629
Le Moyne-Owen College,Memphis,38126-6595,35.118641,-90.034101,0.521472393,15,735,989,17053,12002.5
Black Hills State University,Spearfish,57799-9500,44.495536,-103.870009,0.94100295,20,951,2910,17034,12750
University of North Carolina at Pembroke,Pembroke,28372-1510,34.687231,-79.201895,0.732589839,20,930,5303,17014,11050
Marshall University,Huntington,25755,38.42261,-82.43065,0.765281174,22,1021,8871,16981,13730
Nicholls State University,Thibodaux,70310,29.792689,-90.802906,0.883663366,22,1031,5513,16954,11000
University of Wisconsin-Whitewater,Whitewater,53190-1790,42.835563,-88.742368,0.817932923,23,1050,10533,16950,18500
Midwestern State University,Wichita Falls,76308-2099,33.877143,-98.51774,0.616446763,21,995,5142,16931,13192
University of New Orleans,New Orleans,70148,30.028539,-90.068506,0.435736677,23,1082,6742,16889,10916
New Mexico State University-Main Campus,Las Cruces,88003-8001,32.282875,-106.747841,0.695958316,21,984,12171,16863,10791
Texas Woman's University,Denton,76201,33.227002,-97.129088,0.853120908,20,953,9327,16846,14206.5
Murray State University,Murray,42071-3318,36.61241,-88.323493,0.799579832,23,1064,8126,16825,13107
The University of Tennessee-Martin,Martin,38238-0002,36.340338,-88.864211,0.733408962,23,1050,6387,16805,15000
The Baptist College of Florida,Graceville,32440,30.956401,-85.519033,0.555555556,20,962,454,16788,12557.5
University of Wisconsin-Superior,Superior,54880-4500,46.717548,-92.089039,0.885684861,22,1010,2353,16780,14646.5
University of Nebraska at Omaha,Omaha,68182-0225,41.257746,-96.010797,0.785043478,23,1050,11989,16710,12347.5
Valley City State University,Valley City,58072,46.919144,-98.001762,0.902702703,22,1020,952,16643,11230
Montana Tech of the University of Montana,Butte,59701-8997,46.012164,-112.557,0.907462687,25,1125,1868,16598,12000
Utah State University,Logan,84322-1400,41.740748,-111.81391,0.978340475,23,1067,21087,16572,7904.5
Winston-Salem State University,Winston-Salem,27110-0001,36.089197,-80.224905,0.601624182,18,859,4743,16559,18500
University of the Virgin Islands,Charlotte Amalie,00802-9990,18.344193,-64.972866,0.970744681,18,796,1971,16540,7250
Arkansas Tech University,Russellville,72801-2222,35.295227,-93.13233,0.862566074,22,1010,8845,16518,10000
Lewis-Clark State College,Lewiston,83501-2698,46.410034,-117.026371,0.990361446,20,923,3168,16517,12000
Indiana University-Southeast,New Albany,47150,38.342992,-85.819376,0.803238469,21,959,5476,16428,10999.5
University of Wisconsin-Stevens Point,Stevens Point,54481-3897,44.529582,-89.570934,0.894061758,23,1050,8880,16411,17978
Kentucky Mountain Bible College,Jackson,41339,37.604308,-83.43771,0.54,22,1010,67,16401,5500
University of Hawaii at Hilo,Hilo,96720-4091,19.701854,-155.081329,0.713439905,20,936,3295,16372,11431
California State University-Fresno,Fresno,93740,36.814477,-119.748258,0.594020249,19,910,20128,16316,13000
University of Louisiana at Monroe,Monroe,71209-0000,32.527957,-92.073855,0.772197774,22,1030,5799,16310,11408.5
Mississippi University for Women,Columbus,39701,33.493305,-88.418601,0.936111111,21,988,2316,16299,12597
California State University-San Bernardino,San Bernardino,92407-2397,34.182987,-117.322508,0.844461598,18,884,16439,16206,14657.5
Emporia State University,Emporia,66801-5415,38.414106,-96.18014,0.764883956,22,1009,3777,16205,12750
Montana State University-Northern,Havre,59501,48.541054,-109.686457,1,19,917,1125,16190,10348
Indiana University-South Bend,South Bend,46634-7111,41.665746,-86.222958,0.733333333,20,942,5398,16178,12918
Southeastern Louisiana University,Hammond,70402,30.51358,-90.468558,0.837298542,22,1030,11199,16136,11125
Brigham Young University-Hawaii,Laie,96762-1294,21.641172,-157.925358,0.348630381,25,1110,2522,16128,5500
Saint Louis Christian College,Florissant,63033,38.775771,-90.294569,0.933333333,21,990,166,16116,18645
University of Louisiana at Lafayette,Lafayette,70503,30.215283,-92.01941,0.557958662,23,1070,14667,16112,12075
Youngstown State University,Youngstown,44555-0001,41.105583,-80.646515,0.832980973,21,985,10695,16029,17000
McNeese State University,Lake Charles,70605,30.180762,-93.215648,0.752743233,22,1030,6597,15951,11000
Pittsburg State University,Pittsburg,66762,37.3913,-94.704782,0.791878173,22,1010,5842,15931,12000
Savannah State University,Savannah,31404-5310,32.024781,-81.063377,0.776336114,18,847,4659,15929,15469
University of Houston-Downtown,Houston,77002-1014,29.763831,-95.35953,0.841731066,18,894,13662,15912,12500
Oklahoma Panhandle State University,Goodwell,73939-0430,36.594518,-101.638488,0.595041322,19,910,1136,15888,8967.5
Shepherd University,Shepherdstown,25443,39.434319,-77.804844,0.98293891,22,999,3489,15813,14000
Louisiana State University-Shreveport,Shreveport,71115-2399,32.428768,-93.703762,0.766666667,23,1050,2640,15753,11745
Indiana University-East,Richmond,47374-1289,39.867099,-84.886187,0.637608069,21,943,3200,15743,12500
SUNY College at Old Westbury,Old Westbury,11568-0210,40.789842,-73.570966,0.623495702,22,995,4173,15734,13000
Indiana University-Kokomo,Kokomo,46904-9003,40.459913,-86.132096,0.672585227,20,934,2724,15652,11420.5
California State University-Fullerton,Fullerton,92831-3599,33.883627,-117.885349,0.444683189,22,1021,32610,15627,12500
University of Wisconsin-Parkside,Kenosha,53141-2000,42.646074,-87.855407,0.8601723,21,990,4274,15502,12607
University of North Alabama,Florence,35632-0001,34.80658,-87.680999,0.678842676,22,1029,5485,15494,12638
Fairmont State University,Fairmont,26554-2470,39.485925,-80.161844,0.665117941,21,965,3699,15483,12798
Rhode Island College,Providence,2908,41.84266,-71.466915,0.654537937,19,918,7271,15480,14171.5
University of Arkansas at Pine Bluff,Pine Bluff,71601,34.242192,-92.021263,0.386830103,19,886,2391,15409,13473.5
Eastern New Mexico University-Main Campus,Portales,88130,34.179015,-103.348046,0.630630631,20,935,3731,15405,8500
Rust College,Holly Springs,38635,34.776862,-89.446999,0.388514165,16,760,963,15284,9800
Louisiana State University-Alexandria,Alexandria,71302-9121,31.178616,-92.414409,0.545454545,21,987,2244,15182,7750
Northern Kentucky University,Highland Heights,41099,39.029221,-84.465959,0.907198474,23,1046,11654,15159,14250
West Virginia University Institute of Technology,Montgomery,25136,38.179427,-81.325199,0.847189911,21,1065,1115,15130,14063
University of North Georgia,Dahlonega,30597,34.530527,-83.986574,0.694781796,22,1016,14976,15088,7320.5
Bluefield State College,Bluefield,24701,37.26688,-81.235428,0.383365201,20,927,1529,14965,11700
University of Science and Arts of Oklahoma,Chickasha,73018-5322,35.031392,-97.95641,0.675485009,23,1039,845,14731,10500
Minot State University,Minot,58707,48.246877,-101.300624,0.576774194,23,1035,2570,14689,11563
West Virginia State University,Institute,25112-1000,38.379002,-81.76802,0.41437959,20,942,2237,14689,11087
Metropolitan State University of Denver,Denver,80217-3362,39.742248,-105.002391,0.651073374,21,973,20583,14522,12775
Northeastern State University,Tahlequah,74464-2399,35.920499,-94.968528,0.750127747,22,1009,6914,14395,11778.5
Fayetteville State University,Fayetteville,28301-4298,35.072485,-78.894709,0.503163017,19,892,4862,14366,16748
Purdue University-North Central Campus,Westville,46391-9542,41.583788,-86.89523,0.725085911,21,959,3231,14334,12000
Southeastern Oklahoma State University,Durant,74701-0609,34.005114,-96.376372,0.786734694,21,970,3372,14305,9169
Farmingdale State College,Farmingdale,11735-1021,40.75408,-73.426371,0.466525178,21,982,7768,14257,10775
Indiana University-Northwest,Gary,46408-1197,41.556723,-87.338457,0.767792521,20,916,4370,14067,14000
University of Connecticut-Avery Point,Groton,06340-6097,41.317231,-72.063935,0.503354871,23,1228,670,13942,18750
The University of Texas of the Permian Basin,Odessa,79762-0001,31.889509,-102.329634,0.869974337,20,963,3311,13939,8250
Concord University,Athens,24712,37.423854,-81.005694,0.377570093,22,999,2234,13861,11002.5
University of Connecticut-Stamford,Stamford,06901-2315,41.05587,-73.542747,0.503354871,24,1228,1336,13766,18750
University of Connecticut-Tri-Campus,Waterbury,6702,41.554736,-73.03881,0.503354871,23,1228,2272,13751,18750
Augusta University,Augusta,30912,33.47145,-81.988361,0.76543943,22,1030,5030,13741,7500
Texas A & M International University,Laredo,78041-1900,27.573504,-99.435225,0.467010996,19,906,6706,13737,9250
Dickinson State University,Dickinson,58601-4896,46.882677,-102.800511,0.610278373,21,957,1231,13730,11646.5
Missouri Southern State University,Joplin,64801-1595,37.095722,-94.460893,0.96003996,21,990,5076,13542,10529.5
California State University-Los Angeles,Los Angeles,90032,34.066927,-118.168965,0.610743882,18,871,20643,13479,11402
Northwestern Oklahoma State University,Alva,73717-2799,36.796313,-98.667596,0.662285137,20,930,1876,13055,7500
Elizabeth City State University,Elizabeth City,27909,36.273539,-76.210063,0.490026596,19,866,1763,12305,20352
East Central University,Ada,74820-6999,34.773805,-96.664196,0.971933472,22,1005,3636,12295,11000
The University of Texas Rio Grande Valley,Edinburg,78539-2999,26.306629,-98.172112,0.62796142,20,953,17811,11963,8748
Abraham Baldwin Agricultural College,Tifton,31793-2601,31.481889,-83.528281,0.772581221,20,927,3244,11674,8162.5
Brigham Young University-Idaho,Rexburg,83460-1690,43.815384,-111.784728,0.996188594,23,1041,23865,11139,6500
Southern University at New Orleans,New Orleans,70126,30.02669,-90.044379,0.206960845,17,806,1658,10300,14250